postcode,,,,street_num,,city,State,name,phone,email,,website,Source,Latitude,Longitude
46808,,,,1612 Sherman Blvd.,,Ft. Wayne,IN,3 Rivers Natural Grocery,(260) 424-8812,,,http://www.3riversfood.coop/,https://www.ncg.coop/,41.094870909,-85.165700637
10003,,,,58 East 4th Street,,NewYork,NY,4th Street Food Co-op,212 674-3623,,,Food for change,,40.731443445,-73.988643
14620,,,,571 South Avenue,,Rochester,NY,Abundance Food Co-op,(585) 454-2667,,,http://www.abundance.coop/,https://www.ncg.coop/,43.132401028,-77.602108797
05640,,,,1313 Haggett Road,,Adamant,VT,Adamant Co-op Inc.,802 223-5760,,,Food for change,,44.3402547,-72.499142557
05640,,,,AdamantRoad/1313HaggettRd.,,"Adamant, Vermont",VT,AdamantCo-op,802-223-5760,http://www.adamantcoop.org/,,https://www.nationalco-opdirectory.com,,44.3402547,-72.499142557
14305,,,,2616HighlandAvenue,,"Niagara Falls, New York",NY,AfricanHeritageFoodCo-op,716-573-1844,http://myahfc.com,,https://www.nationalco-opdirectory.com,,43.114130851,-79.037223772
97211,,,,1500 N.E. Alberta Street,,Portland,OR,Alberta Cooperative Grocery,(503) 287-4333,info@albertagrocery.coop,,http://www.albertagrocery.coop/,https://www.ncg.coop/,45.565604291,-122.645969739
02879,,,,357 Main Street,,South Kingstown,RI,Alternative Food Co-op,401 789-2240,,,Food for change,,41.441488244,-71.503257969
58201,,,,214 Demers Avenue,,Grand Forks,ND,Amazing Grains,701 775-4542,,,Food for change,,47.895172151,-97.057457658
95468,,,,185MainStreet,,"Point Arena, California",CA,ArenaMarket&Café,707-882-3663,http://www.arenamarketandcafe.com,,https://www.nationalco-opdirectory.com,,38.9168057,-123.706494938
01610,,,,800 Main Street,,Worcester,MA,Artichoke Food Coop,,,,Food for change,,42.254912008,-71.817192437
97520,,,,237 North First Street,,Ashland,OR,Ashland Food Co-op,(541) 482-2237,contact@ashlandfood.coop,,https://www.ashlandfood.coop,https://www.ncg.coop/,42.197977992,-122.699158475
01754,,,,86 Powder Mill Road,,Maynard,MA,Assabet Co-op Market,(267) 405-3128,,,http://www.assabetmarket.coop,https://www.ncg.coop/,42.431555875,-71.454430291
97103,,,,2350 Marine Drive,,Astoria,OR,Astoria Co+op,(503) 325-0027,,,http://www.astoria.coop,https://www.ncg.coop/,46.164300966,-123.811215443
97814,,,,2008 BRoad way Street,,Baker City,OR,Baker Food Coop,541 523-6281,http://www.bakerfoodcoop.org,,Food for change,,44.77647977,-117.830677914
04901,,,,74 Main St,,Waterville,ME,Barrels Market,207 660-4844,,,Food for change,,44.548910769,-69.621277105
53545,,,,1711 Lodge Drive,,Janesville,WI,Basics Co-op,608 754-3925,,,Food for change,,42.69339434,-89.02989119
53545,,,,1711 Lodge Drive,,Janesville,WI,Basics Cooperative Natural Foods,(608) 754-3925,gm@basicshealth.com,,http://www.basicshealth.com,https://www.ncg.coop/,42.69339434,-89.02989119
11209,,,,93223rdAvenue,,Brooklyn,NY,BayRidgeFoodCo-op(organizing),N/A,http://www.foodcoopbayridge.squarespace.com,,https://www.nationalco-opdirectory.com,,40.625927678,-74.02915091
04915,,,,123 High Street,,Belfast,ME,Belfast Community Co-op,(207) 338-2532,,,http://www.belfast.coop,https://www.ncg.coop/,44.43240541,-69.015478053
94704,,,,2440 Bancroft Way,,Berkeley,CA,Berkeley Student Food Collective,510 845-1985,,,Food for change,,37.871114339,-122.2686746
01230,,,,34 Bridge Street,,Great Barrington,MA,Berkshire Food Co-op,(413) 528-9697,community@berkshire.coop,,http://www.berkshire.coop,https://www.ncg.coop/,42.199212811,-73.358075888
20818,,,,6500SevenLocksRoad,,"Cabin John, Maryland",MD,BethesdaCo-op,301-320-2530,http://www.bethesdacoop.org,,https://www.nationalco-opdirectory.com,,38.975295386,-77.160376763
43209,,,,508 North Cassady Avenue,,Columbus,OH,Bexley Natural Market,614 252-3951,http://www.bexleynaturalmarket.org,,Food for change,,39.956391774,-82.929621367
82070,,,,119 South 1st Street,,Laramie,WY,Big Hollow Food Co-op,307 745-3586,http://www.laramiecoop.com,,Food for change,,41.297709467,-105.565372869
85603,,,,72 Erie Street,,Bisbee,AZ,Bisbee Food Co-op,520 432-4011,,Closed per National Co-op Dir,Food for change,,31.416449489,-109.902774293
47401,,,,3220 East 3rd Street,,Bloomington,IN,Bloomingfoods Co-op Market (East 3rd Street),(812) 336-5400,http://www.bloomingfoods.coop,,http://www.bloomingfoods.coop,https://www.ncg.coop/,39.141092324,-86.499057626
47404,,,,316 West 6th Street,,Bloomington,IN,Bloomingfoods Co-op Market (West 6th Street),(812) 333-7312,http://www.bloomingfoods.coop,,http://www.bloomingfoods.coop,https://www.ncg.coop/,39.203645983,-86.579316129
47404,,,,117 South Gentry Street,,Bloomington,IN,Bloomingfoods Market & Deli,812 339-4442,http://www.bloomingfoods.coop,,Food for change,,39.203645983,-86.579316129
47404,,,,200DanielsWay,,Bloomington,IN,BloomingfoodsMarket&Deli(3Stores&Office)•IvyTechLocation,812-822-0143,http://www.bloomingfoods.coop,,https://www.nationalco-opdirectory.com,,39.203645983,-86.579316129
04614,,,,70 South Street,,Blue Hill,ME,Blue Hill Co-op,(207) 374-2165,info@bluehill.coop,,http://www.bluehill.coop,https://www.ncg.coop/,44.422564634,-68.584145341
55987,,,,121 West 2nd Street,,Winona,MN,Bluff Country Co-op,(507) 452-1815,bccoop@bluff.coop,,http://www.bluff.coop,https://www.ncg.coop/,44.046430806,-91.657343252
55987,,,,121W2ndStreet,,"Winona, Minnesota",MN,BluffCountryCo-op,507-452-1815,http://www.bluff.coop,,https://www.nationalco-opdirectory.com,,44.046430806,-91.657343252
83702,,,,888 West Fort Street,,Boise,ID,Boise Consumer Cooperative,208 472-4500,,,Food for change,,43.628565584,-116.206960675
83702,,,,888 West Fort Street,,Boise,ID,Boise Co-op (North End),(208) 472-4500,,,http://www.boise.coop,https://www.ncg.coop/,43.628565584,-116.206960675
83646,,,,2350 N. Eagle Road,,Meridian,ID,Boise Co-op (The Village),(208) 809-2200,,,http://www.boise.coop,https://www.ncg.coop/,43.641131923,-116.407362331
83702,,,,888W.FortStreet,,"Boise, Idaho",ID,BoiseConsumerCo-op(2Stores)•BoiseCo-opNorthEnd,208-472-4500,http://www.boise.coop,,https://www.nationalco-opdirectory.com,,43.628565584,-116.206960675
83646,,,,2350NEagleRd,,"Meridian, Idaho",ID,BoiseConsumerCo-op(2Stores)•BoiseCo-opTheVillage,208-809-2200,http://www.boise.coop,,https://www.nationalco-opdirectory.com,,43.641131923,-116.407362331
05301,,,,2 Main Street,,Brattleboro,VT,Brattleboro Food Co-op,(802) 257-0236,,,http://www.brattleborofoodcoop.coop,https://www.ncg.coop/,42.852835036,-72.641717158
05301,,,,2MainSt,,"Brattleboro, Vermont",VT,BrattleboroFoodCo-op,802-257-0236,http://www.brattleborofoodcoop.coop,,https://www.nationalco-opdirectory.com,,42.852835036,-72.641717158
32310,,,,915 RailRoad Ave,,Tallahassee,FL,Bread and Roses Food Cooperative,850 425-8486,,,Food for change,,30.41842211,-84.372473742
57701,,,,100 East Boulevard North,,Rapid City,SD,Breadroot Natural Foods Co-op,(605) 348-3331,,,https://www.breadroot.com/,https://www.ncg.coop/,44.081104263,-103.215329869
57701,,,,100EastBlvdN.,,"Rapid City, South Dakota",SD,BreadrootNaturalFoodsCooperative,605-348-3331,http://www.breadroot.com,,https://www.nationalco-opdirectory.com,,44.081104263,-103.215329869
95945,,,,290 Sierra College Drive,,GrassValley,CA,BriarPatch Co-op,530 272-5333,,,Food for change,,39.218669637,-121.049152232
95945,,,,290 Sierra College Drive,,Grass Valley,CA,BriarPatch Food Co-op,(530) 272-5333,,,http://www.briarpatch.coop,https://www.ncg.coop/,39.218669637,-121.049152232
95945,,,,290SierraCollegeDrive,,"Grass Valley, California",CA,BriarPatchFoodCo-op,530-272-5333,http://www.briarpatch.coop,,https://www.nationalco-opdirectory.com,,39.218669637,-121.049152232
05843,,,,30 South Main Street,,Hardwick,VT,Buffalo Mountain Co-op,802 472-6020,,,Food for change,,44.501148745,-72.364433094
05843,,,,75MillStreet,,"Hardwick, Vermont",VT,BuffaloMountainFoodCo-op,802-472-6677,http://www.buffalomountaincoop.org,,https://www.nationalco-opdirectory.com,,44.501148745,-72.364433094
11237,,,,2PorterAve.,,Brooklyn,NY,BushwickFoodCooperative(Closed),347-450-1087,http://www.bushwickfoodcoop.org,,https://www.nationalco-opdirectory.com,,40.701286569,-73.918281769
12816,,,,1WestMainStreet,,"Cambridge, Massachusetts",NY,CambridgeFoodCo-op,518-677-5731,http://cambridgefoodcoop.com,,https://www.nationalco-opdirectory.com,,43.046594471,-73.383611576
81623,,,,559 Main Street,,Carbondale,CO,Carbondale Community Food,970 963-1375,,,Food for change,,39.34355549,-107.206191481
81623,,,,559MainStreet,,"Carbondale, Illinois",CO,CarbondaleCommunityFoodCooperative(CLOSED),970-963-1375,http://www.carbondalecommunityfoodcoop.org,,https://www.nationalco-opdirectory.com,,39.34355549,-107.206191481
98122,,,,1600 E Madison St,,Seattle,WA,Central Co-op,206 329-1545,,,Food for change,,47.610829552,-122.303633109
98122,,,,1600 East Madison Street,,Seattle,WA,Central Co-op (Seattle),(206) 329-1545,,,http://www.centralcoop.coop,https://www.ncg.coop/,47.610829552,-122.303633109
98407,,,,4502 North Pearl Street,,Tacoma,WA,Central Co-op (Tacoma),(206) 329-1545,,,http://www.centralcoop.coop,https://www.ncg.coop/,47.282825743,-122.512761343
77008,,,,2515HarvardSt,,Houston,TX,CentralCityCo-op,832-690-1216,https://centralcitycoop.company.site/,,https://www.nationalco-opdirectory.com,,29.797802137,-95.418998762
98122,,,,1600EastMadison,,Seattle,WA,CentralCo-op,206-329-1545,http://www.centralcoop.coop,,https://www.nationalco-opdirectory.com,,47.610829552,-122.303633109
27312,,,,480 Hillsboro Street,,Pittsboro,NC,Chatham Marketplace,(919) 542-2643,,,http://www.chathammarketplace.coop,https://www.ncg.coop/,35.765330383,-79.168928399
12037,,,,15 Church St.,,Chatham,NY,Chatham Real Food Co-op,518-392-3353,,,Food for change,,42.350182361,-73.583609587
27312,,,,480HillsboroStreetSte320,,"Pittsboro, North Carolina",NC,ChathamMarketplace,919-542-2643,http://chathammarketplace.coop,,https://www.nationalco-opdirectory.com,,35.765330383,-79.168928399
12037,,,,15ChurchStreet,,"Chatham County, North Carolina",NY,ChathamRealFoodMarketCo-op,518-392-3353,http://www.chatham.coop,,https://www.nationalco-opdirectory.com,,42.350182361,-73.583609587
54806,,,,700 Main Street West,,Ashland,WI,Chequamegon Food Co-op,(715) 682-8251,outreach@cheqfood.coop,,http://www.chequamegonfoodcoop.com,https://www.ncg.coop/,46.581146206,-90.916169714
54806,,,,700MainStreetWest,,"Ashland County, Wisconsin",WI,ChequamegonFoodCo-op,715-682-8251,http://www.chequamegonfoodcoop.com,,https://www.nationalco-opdirectory.com,,46.581146206,-90.916169714
95928,,,,818 Main Street,,Chico,CA,Chico Natural Food,530 891-1713,,,Food for change,,39.725372159,-121.832768964
95928,,,,818 Main Street,,Chico,CA,Chico Natural Foods Cooperative,(530) 891-1713,news@chiconatural.com,,http://www.chiconaturalfoods.coop,https://www.ncg.coop/,39.725372159,-121.832768964
95928,,,,818MainStreet,,"Chico, California",CA,ChicoNaturalFoods,530-891-1713,http://www.chiconatural.com,,https://www.nationalco-opdirectory.com,,39.725372159,-121.832768964
32601,,,,435 S Main St.,,Gainesville,FL,Citizen's Co-op,352 505-6575,,,Food for change,,29.648905865,-82.326475645
55008,,,,122 North Buchanan Street,,Cambridge,MN,City Center Market,(763) 689-4640,theco-op@citycentermarket.coop,,http://www.citycentermarket.coop/,https://www.ncg.coop/,45.558003022,-93.231577644
63118,,,,2639 Cherokee Street,,St.Louis,MO,City Food Co-op,314 865-0567,,,Food for change,,38.595856414,-90.226754949
05401,,,,82 South Winooski Avenue,,Burlington,VT,City Market,802 861-9700,,,Food for change,,44.474842637,-73.21103245
05401,,,,82 South Winooski Avenue,,Burlington,VT,City Market/Onion River Co-op (Downtown),(802) 861-9700,,,http://www.citymarket.coop,https://www.ncg.coop/,44.474842637,-73.21103245
05401,,,,207 Flynn Avenue,,Burlington,VT,City Market/Onion River Co-op (South End),(802) 540-6400,,,http://www.citymarket.coop,https://www.ncg.coop/,44.474842637,-73.21103245
55008,,,,122N.BuchananStreet,,"Cambridge, Massachusetts",MN,CityCenterMarketFoodCo-op&Deli,763-689-4640,http://www.citycentermarket.coop/,,https://www.nationalco-opdirectory.com,,45.558003022,-93.231577644
47901,,,,634MainSt,,"Lafayette, Louisiana",IN,CityFoods(Closed),765-746-6903,http://www.cityfoods.org,,https://www.nationalco-opdirectory.com,,40.415924028,-86.884378952
05401,,,,82SWinooskiAve,,"Burlington, Vermont",VT,CityMarketOnionRiverCo-op(2stores)•Downtown,802-861-9700,http://www.citymarket.coop,,https://www.nationalco-opdirectory.com,,44.474842637,-73.21103245
05401,,,,207FlynnAvenue,,"Burlington, Vermont",VT,CityMarketOnionRiverCo-op(2stores)•SouthEnd,802-540-6400,http://www.citymarket.coop,,https://www.nationalco-opdirectory.com,,44.474842637,-73.21103245
13624,,,,720JamesSt,,"Clayton, California",NY,ClaytonFoodCo-op(CLOSED),315-686-3242,http://www.claytonfood.com,,https://www.nationalco-opdirectory.com,,44.232582598,-76.087861506
47374,,,,710 East Main Street,,Richmond,IN,Clear Creek Food Co-op,765 939-4390,,,Food for change,,39.829394161,-84.889507899
47202,,,,1580CentralAve,,"Columbus, Ohio",IN,ColumbusFoodCo-op(CLOSED),812-343-3588,http://www.columbusmarket.coop,,https://www.nationalco-opdirectory.com,,,
61801,,,,300 South Broadway Avenue,,Urbana,IL,Common Ground Food Co-op,(217) 352-3347,info@commonground.coop,,http://www.commonground.coop,https://www.ncg.coop/,40.108556986,-88.21273462
,,,,300S.BroadwayAve.,,"Urbana, Illinois",IL,CommonGroundFoodCo-op,217-352-3347,N/A,,https://www.nationalco-opdirectory.com,,,
13365,,,,589 Albany Street,,LittleFalls,NY,Community Co-op,315 823-0686,,,Food for change,,43.053577991,-74.853869935
32301,,,,1235 Apalachee Parkway,,Tallahassee,FL,Community Co-op Market,(850) 399-2667,info@communitycoopmarket.coop,,http://www.communitycoopmarket.coop,https://www.ncg.coop/,30.435411708,-84.253875188
59715,,,,908 West Main Street,,Bozeman,MT,Community Food Co-op,406 587-4039,,,Food for change,,45.685106985,-111.050200127
98226,,,,315 Westerly Road,,Bellingham,WA,Community Food Co-op - Bellingham (Cordata),(360) 734-8158,info@communityfood.coop,,http://www.communityfood.coop,https://www.ncg.coop/,48.787296259,-122.468414711
98225,,,,1220 North Forest Street,,Bellingham,WA,Community Food Co-op - Bellingham (Forest),(360) 734-8158,info@communityfood.coop,,http://www.communityfood.coop,https://www.ncg.coop/,48.74937071,-122.480261624
59715,,,,44 East Main Street,,Bozeman,MT,Community Food Co-op - Bozeman (Downtown),(406) 922-2667,info@bozo.coop,,http://www.bozo.coop,https://www.ncg.coop/,45.685106985,-111.050200127
59715,,,,908 West Main St.,,Bozeman,MT,Community Food Co-op - Bozeman (West Main),(406) 587-4039,info@bozo.coop,,http://www.bozo.coop,https://www.ncg.coop/,45.685106985,-111.050200127
98226,,,,315 Westerly Road,,Bellingham,WA,Community Food Co-op Cordata,360 734-8158,,,Food for change,,48.787296259,-122.468414711
43202,,,,200 Crestview Road,,Columbus,OH,Community Market,614 261-3663,,,Food for change,,40.017766097,-83.011231416
95401,,,,1899 Mendocino Avenue,,Santa Rosa,CA,Community Market Natural Foods,707 546-1806,,,Food for change,,38.442965766,-122.741000198
13365,,,,589AlbanyStreet,,"Vader, Washington",NY,CommunityCo-op,315-823-0686,http://community-co-op.business.site/,,https://www.nationalco-opdirectory.com,,43.053577991,-74.853869935
32301,,,,1235ApalacheeParkway,,"Tallahassee, Florida",FL,CommunityCo-opMarket,(850)399-2667,http://www.communitycoopmarket.coop,,https://www.nationalco-opdirectory.com,,30.435411708,-84.253875188
98225,,,,1220NorthForestStreet,,"Bellingham, Washington",WA,CommunityFoodCo-op(2Stores&Bakery-cafe)•1stlocation,360-734-8158,http://www.communityfood.coop,,https://www.nationalco-opdirectory.com,,48.74937071,-122.480261624
98225,,,,405EastHollyStreet,,"Bellingham, Washington",WA,CommunityFoodCo-op(2Stores&Bakery-cafe)•2ndlocationBakery-café,360-734-8158,http://www.communityfood.coop,,https://www.nationalco-opdirectory.com,,48.74937071,-122.480261624
98226,,,,315WesterlyRoad,,"Bellingham, Washington",WA,CommunityFoodCo-op(2Stores&Bakery-cafe)•3rdlocation,360-734-8158,http://www.communityfood.coop,,https://www.nationalco-opdirectory.com,,48.787296259,-122.468414711
59715,,,,908W.MainStreet,,"Bozeman, Montana",MT,CommunityFoodCo-op(2stores)•1stlocation,406-587-4039,http://www.bozo.coop,,https://www.nationalco-opdirectory.com,,45.685106985,-111.050200127
59715,,,,44E.MainStreet,,"Bozeman, Montana",MT,CommunityFoodCo-op(2stores)•2ndlocation,406-922-2667,http://www.bozo.coop,,https://www.nationalco-opdirectory.com,,45.685106985,-111.050200127
95472,,,,6762SebastopolAve.,,"Sebastopol, California",CA,CommunityMarketNaturalFoods(2stores)•CommunityMarketattheBarlow,707-407-4020,https://www.cmnaturalfoods.com/,,https://www.nationalco-opdirectory.com,,38.406431155,-122.835239467
95401,,,,1899MendocinoAvenue,,"Santa Rosa, California",CA,CommunityMarketNaturalFoods(2stores)•CommunityMarketNaturalFoods,707-546-1806,http://www.cmnaturalfoods.com,,https://www.nationalco-opdirectory.com,,38.442965766,-122.741000198
27215,,,,268 E Front St.,,Burlington,NC,Company Shops Market,336 223-0384,,,Food for change,,36.068679587,-79.464411965
27215,,,,268EastFrontStreet,,"Burlington, Vermont",NC,CompanyShopsMarket(CLOSED),336-223-0390,http://www.CompanyshopsMarket.coop,,https://www.nationalco-opdirectory.com,,36.068679587,-79.464411965
03301,,,,24 South Main Street,,Concord,NH,Concord Cooperative Market & Celery Stick Cafe,603 225-6840,,,Food for change,,43.213789796,-71.531821762
03301,,,,24 South Main St.,,Concord,NH,Concord Food Co-op (Concord),(603) 225-6840,info@concordfoodcoop.coop,,http://www.concordfoodcoop.coop,https://www.ncg.coop/,43.213789796,-71.531821762
03257,,,,52 Newport Road,,New London,NH,Concord Food Co-op (New London),(603) 526-6650,info@concordfoodcoop.coop,,http://www.concordfoodcoop.coop,https://www.ncg.coop/,43.416338133,-71.994998761
03301,,,,24S.MainStreet,,"Concord, New Hampshire",NH,ConcordFoodCo-op,603-225-6840,http://www.concordfoodcoop.coop,,https://www.nationalco-opdirectory.com,,43.213789796,-71.531821762
03257,,,,52NewportRoad,,"New London, Minnesota",NH,ConcordFoodCo-opofNewLondon,603-526-6650,http://concordfoodcoop.coop/,,https://www.nationalco-opdirectory.com,,43.416338133,-71.994998761
55604,,,,20 East First Street,,Grand Marais,MN,Cook County Whole Foods Co-op,(218) 387-2503,info@cookcounty.coop,,http://www.cookcounty.coop,https://www.ncg.coop/,47.851600872,-90.329401483
55604,,,,20E.1stStreet,,"Grand Marais, Minnesota",MN,CookCountyWholeFoodsCo-op,218-387-2503,http://www.cookcounty.coop,,https://www.nationalco-opdirectory.com,,47.851600872,-90.329401483
03755,,,,45 South Park Street,,Hanover,NH,Co-op Food Store: Hanover,603 643-4889,,,Food for change,,43.705203304,-72.279782782
03766,,,,12 Centerra Parkway,,Lebanon,NH,Co-op Food Store: Lebanon,603 643-4889,,,Food for change,,43.645572112,-72.25238524
05001,,,,209 Maple Street,,White River Junction,VT,Co-op Food Store: White River Junction,802 295-3400,,,Food for change,,43.665144835,-72.366536217
99701,,,,526 Gaffney Road,,Fairbanks,AK,Co-op Market Grocery & Deli,(907) 457-1023,,,http://www.coopmarket.org/,https://www.ncg.coop/,64.816906406,-147.747434407
57104,,,,410 West 18th Street,,SiouxFalls,SD,Co-op Natural Foods,605 339-9506,,,Food for change,,43.559425668,-96.72796983
99701,,,,526GaffneyRoad,,"Fairbanks, Alaska",AK,Co-opMarketGrocery&Deli,907-457-1023,http://coopmarket.org/,,https://www.nationalco-opdirectory.com,,64.816906406,-147.747434407
90404,,,,1525 Broad way,,Santa Monica,CA,Co-opportunity,310 451-8902,,,Food for change,,34.028867953,-118.476301992
90232,,,,8770 Washington Blvd.,,Culver City,CA,Co-opportunity Market (Culver City),(323) 970-3060,service@coopportunity.com,,http://www.coopportunity.com,https://www.ncg.coop/,34.015426817,-118.395777076
90404,,,,1525 Broadway,,Santa Monica,CA,Co-opportunity Market (Santa Monica),(323) 990-7020,service@coopportunity.com,,http://www.coopportunity.com,https://www.ncg.coop/,34.028867953,-118.476301992
90404,,,,1525Broadway,,"Santa Monica, California",CA,Co-opportunityConsumersCo-op,323-990-7020,http://www.coopportunity.com,,https://www.nationalco-opdirectory.com,,34.028867953,-118.476301992
97459,,,,1960 Sherman Avenue,,North Bend,OR,Coos Head Food Store,541 756-7264,,,Food for change,,43.452488469,-124.229829062
97420,,,,353South2ndStreet,,"Coos Bay, Oregon",OR,CoosHeadFoodCo-op,541-756-7264,https://coosheadfood.coop/,,https://www.nationalco-opdirectory.com,,43.361647351,-124.21948167
95460,,,,45015 Ukiah Street,,Mendocino,CA,Corners of the Mouth,707 937-5345,,,Food for change,,39.326167994,-123.807372265
95460,,,,45015UkiahStreet,,"Mendocino County, California",CA,CornersoftheMouthNaturalFoods(worker’scollective),707-937-5345,http://www.cornersofthemouth.com/,,https://www.nationalco-opdirectory.com,,39.326167994,-123.807372265
56452,,,,409 Minnesota 371,,Hackensack,MN,Countryside Co-op,218 675-6865,,,Food for change,,46.9459115,-94.456157222
56452,,,,409Hwy#371South,,"Hackensack, Minnesota",MN,CountrysideCo-op,218-675-6865,http://www.countrysideco-op.com/,,https://www.nationalco-opdirectory.com,,46.9459115,-94.456157222
19027,,,,7909 High School Rd,,Elkins Park,PA,Creekside Co-op,215-557-4480,,,Food for change,,40.072951214,-75.127397507
,,,,TX,,,,CrossTimbersFoodCooperative(*NotaStorefront),N/A,http://www.crosstimberscoop.org,,https://www.nationalco-opdirectory.com,,,
56401,,,,720 Washington Street,,Brainerd,MN,Crow Wing Food Co-op,218 828-4600,,,Food for change,,46.356507644,-94.191755113
56401,,,,624LaurelStreet,,"Brainerd, Minnesota",MN,CrowWingFoodCo-op,218-828-4600,http://crowwingfoodco-op.com,,https://www.nationalco-opdirectory.com,,46.356507644,-94.191755113
30601,,,,523 Prince Avenue,,Athens,GA,Daily Groceries Co-op,(706) 548-1732,info@dailygroceries.org,,http://www.dailygroceries.org,https://www.ncg.coop/,33.975393849,-83.364825636
30601,,,,523PrinceAvenue,,"Athens, Georgia",GA,DailyGroceriesCo-op,706-548-1732,https://www.dailygroceries.org/,,https://www.nationalco-opdirectory.com,,33.975393849,-83.364825636
95616,,,,620 G Street,,Davis,CA,Davis Food Co-op,(530) 758-2667,,,http://www.davisfood.coop,https://www.ncg.coop/,38.547930552,-121.742866969
95616,,,,620GStreet,,"Davis, California",CA,DavisFoodCo-op,530-758-2667,http://www.davisfood.coop,,https://www.nationalco-opdirectory.com,,38.547930552,-121.742866969
27401,,,,600 North Eugene Street,,Greensboro,NC,Deep Roots Market,(336) 292-9216,,,http://www.deeprootsmarket.coop,https://www.ncg.coop/,36.071056599,-79.778919168
27401,,,,600N.EugeneSt.,,"Greensboro, North Carolina",NC,DeepRootsMarket,336-292-9216,http://www.deeprootsmarket.com,,https://www.nationalco-opdirectory.com,,36.071056599,-79.778919168
48221,,,,11000WestMcNicholsRoad,,Detroit,MI,DetroitPeople'sFoodCo-op,(833)373-2313,https://detroitpeoplesfoodcoop.com,,https://www.nationalco-opdirectory.com,,42.43101974,-83.14251005
60647,,,,2746 N. Milwaukee Avenue,,Chicago,IL,Dill Pickle Food Co-op,(773) 252-2667,,,http://www.dillpickle.coop,https://www.ncg.coop/,41.919627599,-87.698807273
60647,,,,2746NMilwaukeeAve,,Chicago,IL,DillPickleFoodCo-op,(773)252-COOP,https://dillpickle.coop/,,https://www.nationalco-opdirectory.com,,41.919627599,-87.698807273
87527,,,,215 New Mexico 75,,Dixon,NM,Dixon Cooperative Market,505 579-9625,,,Food for change,,36.202889814,-105.883503314
87527,,,,215Highway75,,"Dixon, Illinois",NM,DixonCooperativeMarket,505-579-9625,http://www.dixonmarket.com,,https://www.nationalco-opdirectory.com,,36.202889814,-105.883503314
02124,,,,Boston,,"Dorchester, Boston",MA,DorchesterCommunityFoodCo-op(*NotaStorefront),N/A,http://www.dorchesterfoodcoop.com,,https://www.nationalco-opdirectory.com,,42.286936655,-71.065812122
18901,,,,29W.StateSt.,,"Doylestown, Pennsylvania",PA,DoylestownFoodMarket(CLOSED),215-240-4215,http://www.doylestown.coop,,https://www.nationalco-opdirectory.com,,40.314643696,-75.126158962
18901,,,,29 W State St.,,Doylestown,PA,Doylston Food Co-op,215-348-4548,,,Food for change,,40.314643696,-75.126158962
52001,,,,955 Washington St #107,,Dubuque,IA,Dubuque Food Co-op,563 557-4400,,,Food for change,,42.511261798,-90.676834428
60115,,,,129 East Hillcrest Drive,,DeKalb,IL,Duck Soup Coop,815 756-7044,,,Food for change,,41.931164618,-88.754310863
81301,,,,575 East 8th Avenue,,Durango,CO,Durango Natural Foods Co-op,(970) 247-8129,,,http://www.durangonaturalfoods.coop,https://www.ncg.coop/,37.308899264,-107.866423649
81301,,,,575 East 8th Avenue,,Durango,CO,Durango Natural Foods Inc,970 247-8129,,,Food for change,,37.308899264,-107.866423649
81301,,,,575E8thAvenue,,Durango,CO,DurangoNaturalFoods,970-247-8129,http://www.durangonaturalfoods.coop,,https://www.nationalco-opdirectory.com,,37.308899264,-107.866423649
27701,,,,1111 West Chapel Hill Street,,Durham,NC,Durham Co-op Market,(919) 973-1707,info@durhamcentralmarket.org,,http://www.durham.coop,https://www.ncg.coop/,35.997256386,-78.896113956
27701,,,,1111WestChapelHillSt.,,"Durham, North Carolina",NC,DurhamCo-opMarket,919.973.1707,http://www.durham.coop,,https://www.nationalco-opdirectory.com,,35.997256386,-78.896113956
14052,,,,591 Main Street,,East Aurora,NY,East Aurora Co-op Market,(716) 655-2667,info@eastaurora.coop,,http://www.eastaurora.coop,https://www.ncg.coop/,42.770013159,-78.60612724
15208,,,,7516 Meade Street,,Pittsburgh,PA,East End Food Co-op,(412) 242-3598,,,http://www.eastendfood.coop,https://www.ncg.coop/,40.453798144,-79.89896004
48823,,,,4960 Northwind Drive,,EastLansing,MI,East Lansing Food Cooperative,517 337-1266,,,Food for change,,42.74411265,-84.474412325
55418,,,,2551 Old Central Avenue,,Minneapolis,MN,East Side Food Co-op,612 788-0950,,,Food for change,,45.020878099,-93.243488913
05674,,,,42 Roxbury Gap Road,,Warren,VT,East Warren Community Market,802 496-6758,,,Food for change,,44.114574503,-72.853716567
14052,,,,591MainStreet,,"East Aurora, New York",NY,EastAuroraCooperativeMarket,716-655-COOP(2667),http://eastaurora.coop/,,https://www.nationalco-opdirectory.com,,42.770013159,-78.60612724
15208,,,,7516MeadeSt,,Pittsburgh,PA,EastEndFoodCo-op,412-242-3598,http://www.eastendfood.coop,,https://www.nationalco-opdirectory.com,,40.453798144,-79.89896004
55418,,,,2551 Central Avenue N.E.,,Minneapolis,MN,Eastside Food Co-op,(612) 788-0950,,,http://www.eastsidefood.coop,https://www.ncg.coop/,45.020878099,-93.243488913
55418,,,,2551CentralAvenue,,Minneapolis,MN,EastsideFoodCooperative,612-788-0950,http://www.eastsidefood.coop,,https://www.nationalco-opdirectory.com,,45.020878099,-93.243488913
05674,,,,42RoxburyMountainRoad,,East Warren,VT,"EastWarrenCommunityMarketCo-op,Inc.",802-496-6758,https://www.eastwarrenmarket.com/,,https://www.nationalco-opdirectory.com,,44.114574503,-72.853716567
24060,,,,708 North Main Street,,Blacksburg,VA,Eats Natural Foods,540 552-2279,,,Food for change,,37.230166555,-80.436801752
24060,,,,708aNorthMainStreet,,"Blacksburg, Virginia",VA,"EatsNaturalFoodsCo-op,Inc.",540-552-2279,http://www.EatsNaturalFoods.com,,https://www.nationalco-opdirectory.com,,37.230166555,-80.436801752
06510,,,,777 Chapel Street,,New Haven,CT,Elm City Market,203 624-0441,,,Food for change,,41.307804693,-72.925155288
68937,,,,304SmithAvenue,,"Elwood, Nebraska",NE,ElwoodHometownCooperativeMarket,308-785-2182,http://www.elwoodnebraska.com/,,https://www.nationalco-opdirectory.com,,40.616228775,-99.853177625
16508,,,,1341 West 26th Street,,Erie,PA,Erie Food Co-op (26th Street),(814) 456-0282,,,http://www.eriefood.coop,https://www.ncg.coop/,42.09973689,-80.088016211
16501,,,,34 North Park Row,,Erie,PA,Erie Food Co-op (Downtown),N/A,,,http://www.eriefood.coop,https://www.ncg.coop/,42.122348817,-80.086700956
32502,,,,315 W. Garden Street,,Pensacola,FL,Ever'man Cooperative Grocery & Cafe (Garden Street),(850) 438-0402,info@everman.org,,http://www.everman.org,https://www.ncg.coop/,30.410869565,-87.213471152
32514,,,,1000 East Nine Mile Road,,Pensacola,FL,Ever'man Cooperative Grocery & Cafe (Nine Mile Road),(850) 438-0402,info@everman.org,,http://www.everman.org,https://www.ncg.coop/,30.523541095,-87.206440843
32502,,,,315 West Garden Street,,Pensacola,FL,Ever'man Natural Foods,850 438-0402,,,Food for change,,30.410869565,-87.213471152
32502,,,,315W.GardenStreet,,"Pensacola, Florida",FL,Ever'manCooperativeGrocery&Café,850-438-0402,http://www.everman.org,,https://www.nationalco-opdirectory.com,,30.410869565,-87.213471152
56347,,,,11 1st Street,,Long Prairie,MN,Everybody's Market,320 732-3900,,,Food for change,,45.958129974,-94.860908762
56347,,,,111stStreetNorth,,"Long Prairie Township, Todd County, Minnesota",MN,Everybody'sMarket,320-732-3900,https://everybodysmarket.weebly.com/,,https://www.nationalco-opdirectory.com,,45.958129974,-94.860908762
04268,,,,443 Main Street,,Norway,ME,Fare Share Co-op Store,207 743-9044,,,Food for change,,44.218556003,-70.570913562
04268,,,,443MainStreet,,Norway,ME,FareShareMarket,207-743-9044,http://www.faresharecoop.org,,https://www.nationalco-opdirectory.com,,44.218556003,-70.570913562
96122,,,,60 N. Pine Street,,Portola,CA,Feather River Food Co-op (Portola),(530) 832-1642,,,http://www.featherriver.coop,https://www.ncg.coop/,39.809702614,-120.454903914
95971,,,,269 Main Street,,Quincy,CA,Feather River Food Co-op (Quincy),(530) 283-3528,,,http://www.featherriver.coop,https://www.ncg.coop/,39.939916267,-120.946437178
95971,,,,269MainStreet,,"Quincy Township, Olmsted County, Minnesota",CA,FeatherRiverFoodCo-op,530-283-3528,https://featherriver.coop,,https://www.nationalco-opdirectory.com,,39.939916267,-120.946437178
96122,,,,60NorthPineStreet,,"Portola, California",CA,FeatherRiverFoodCo-op(2stores)•,530-832-1642,https://featherriver.coop/,,https://www.nationalco-opdirectory.com,,39.809702614,-120.454903914
99166,,,,34 North Clark Avenue,,Republic,WA,Ferry County Co-op,509 775-3754,,,Food for change,,48.730071687,-118.676468109
99166,,,,34NClarkAvenue,,"Republic, Washington",WA,FerryFoodCo-op,509-775-3754,http://www.ferrycountynaturalmarket.com/,,https://www.nationalco-opdirectory.com,,48.730071687,-118.676468109
06320,,,,13 Broad Street,,New London,CT,Fiddleheads Co-op,(860) 701-9123,,,http://www.fiddleheadsfood.coop,https://www.ncg.coop/,41.345964152,-72.10425487
06320,,,,13 BRoad St,,New London,CT,Fiddleheads: A Natural Foods Cooperative,860 701-9123,,,Food for change,,41.345964152,-72.10425487
06320,,,,13BroadStreet,,"New London, Connecticut",CT,FiddleheadsNaturalFoodsCooperative,860-701-9123,http://www.fiddleheadsfood.coop,,https://www.nationalco-opdirectory.com,,41.345964152,-72.10425487
55603,,,,6648 State Highway 1,,Finland,MN,Finland Co-op Co.,218 353-7389,,,Food for change,,47.428845752,-91.240836033
55603,,,,BoxEMainStreet,,Finland,MN,FinlandCooperative,218-353-7389,https://finlandcoop.com/,,https://www.nationalco-opdirectory.com,,47.428845752,-91.240836033
97330,,,,2855 N.W. Grant Avenue,,Corvallis,OR,First Alternative Co-op (North),(541) 452-3115,firstalt@firstalt.coop,,http://www.firstalt.coop,https://www.ncg.coop/,44.584071394,-123.278610328
97333,,,,1007 S.E. Third Street,,Corvallis,OR,First Alternative Co-op (South),(541) 753-3115,firstalt@firstalt.coop,,http://www.firstalt.coop,https://www.ncg.coop/,44.544134812,-123.274122665
97330,,,,2855 Northwest Grant Avenue,,Corvallis,OR,First Alternative Natural Foods Co-op - North,541 452-3115,,,Food for change,,44.584071394,-123.278610328
97333,,,,1007 Southeast 3rd Street,,Corvallis,OR,First Alternative Natural Foods Co-op South Store,541 753-3115,,,Food for change,,44.544134812,-123.274122665
97330,,,,2855NWGrantAvenue,,"Corvallis, Oregon",OR,FirstAlternativeNaturalFoodsCo-op(2stores)•NorthStore,541-452-3115,http://www.firstalt.coop,,https://www.nationalco-opdirectory.com,,44.584071394,-123.278610328
97333,,,,1007SEThirdSt,,"Corvallis, Oregon",OR,FirstAlternativeNaturalFoodsCo-op(2stores)•SouthStore,541-753-3115,http://www.firstalt.coop,,https://www.nationalco-opdirectory.com,,44.544134812,-123.274122665
11226,,,,1415 Cortelyou Road,,Brooklyn,NY,Flatbush Food Co-op,718 284-9717,,,Food for change,,40.646064647,-73.95511699
11226,,,,1415 Cortelyou Road,,Brooklyn,NY,Flatbush Food Cooperative,(718) 284-9717,,,https://www.flatbushfood.coop/,https://www.ncg.coop/,40.646064647,-73.95511699
11226,,,,1415CortelyouRd.,,Brooklyn,NY,FlatbushFoodCooperative,718-284-9717,http://www.flatbushfood.coop,,https://www.nationalco-opdirectory.com,,40.646064647,-73.95511699
85705,,,,412 North 4th Avenue,,Tucson,AZ,Food Conspiracy Co-op,(520) 624-4821,marketing@foodconspiracy.coop,,http://www.foodconspiracy.org,https://www.ncg.coop/,32.253009723,-110.978696513
98368,,,,414 Kearney Street,,Port Townsend,WA,Food Co-op,360 385-2883,,,Food for change,,48.100064095,-122.801536516
97210,,,,2375 N.W. Thurman St.,,Portland,OR,Food Front Cooperative Grocery,(503) 222-5658,,,http://www.foodfront.coop,https://www.ncg.coop/,45.533289543,-122.70862237
85705,,,,412N.4thAvenue,,"Tucson, Arizona",AZ,FoodConspiracyCo-op,520-624-4821,http://www.foodconspiracy.coop,,https://www.nationalco-opdirectory.com,,32.253009723,-110.978696513
97210,,,,2375NWThurmanStreet,,"Portland, Oregon",OR,FoodFrontCooperativeGrocery,503-222-5658Ex133,http://www.foodfront.coop,,https://www.nationalco-opdirectory.com,,45.533289543,-122.70862237
97239,,,,6344SWCapitalHighway,,"Portland, Oregon",OR,FoodFrontCooperativeGrocery(CLOSED),503-546-6559,http://www.foodfront.coop,,https://www.nationalco-opdirectory.com,,45.487366936,-122.691032521
80524,,,,250 East Mountain Avenue,,Fort Collins,CO,Fort Collins Food Co-op,970 484-7448,,,Food for change,,40.588338121,-105.061404922
01301,,,,144 Main Street,,Greenfield,MA,Franklin Community Co-op (Green Fields Market),(413) 773-9567,,,http://www.franklincommunity.coop,https://www.ncg.coop/,42.59781595,-72.604415498
01370,,,,3 State Street,,Shelburne Falls,MA,Franklin Community Co-op (McCusker's Market),(413) 625-9411,,,http://www.franklincommunity.coop,https://www.ncg.coop/,42.605708958,-72.729273238
01370,,,,3StateStreet,,"Shelburne Falls, Massachusetts",MA,FranklinCommunityCo-op(2stores)•McCusker'sCo-opMarket,413-625-2548,http://www.franklincommunity.coop,,https://www.nationalco-opdirectory.com,,42.605708958,-72.729273238
01301,,,,144MainStreet,,"Greenfield, Massachusetts",MA,FranklinCommunityMarket(2stores)•GreenFieldsCo-opMarket,413-773-9567,http://www.franklincommunity.coop,,https://www.nationalco-opdirectory.com,,42.59781595,-72.604415498
22401,,,,320 Emancipation Highway,,Fredericksburg,VA,Fredericksburg Food Co-op,(540) 940-6615,fxbgfoodcoop@gmail.com,,http://www.fredericksburgfoodcoop.com,https://www.ncg.coop/,38.297939375,-77.478482859
28801,,,,90 Biltmore Avenue,,Asheville,NC,French Broad Food Co-op,(828) 255-7650,,,http://www.frenchbroadfood.coop,https://www.ncg.coop/,35.59499297,-82.555371192
28801,,,,90BiltmoreAve.,,"Asheville, North Carolina",NC,FrenchBroadFoodCo-op,828-255-7650,http://www.frenchbroadfood.coop/,,https://www.nationalco-opdirectory.com,,35.59499297,-82.555371192
50511,,,,14 East State Street,,Algona,IA,Fresh Connections Co-op,515 395-2667,,,Food for change,,43.066485269,-94.22337393
22802,,,,150 East Wolfe Street,,Harrisonburg,VA,Friendly City Food Co-op,(540) 801-8882,info@friendlycity.coop,,http://www.friendlycity.coop,https://www.ncg.coop/,38.453130404,-78.848247404
22802,,,,150 East Wolfe Street,,Harrisonburg,VA,Friendly Food Co-op,540 801-8882,,,Food for change,,38.453130404,-78.848247404
22802,,,,150E.WolfeSt.,,"Harrisonburg, Virginia",VA,FriendlyCityFoodCo-op,540-801-8882,http://www.friendlycity.coop,,https://www.nationalco-opdirectory.com,,38.453130404,-78.848247404
52318,,,,3021 78th Street,,Norway,IA,Frontier Natural Products Co-op,319 227-7991,,,Food for change,,41.889136358,-91.900035789
04345,,,,269WaterSt.,,"Gardiner, Maine",ME,GardinerFoodCo-op&Café,207-629-3663,http://gardinerfood.coop/,,https://www.nationalco-opdirectory.com,,44.210488271,-69.792558199
45406,,,,324 Salem Avenue,,Dayton,OH,Gem City Market Co-op,(937) 741-3240,,,https://gemcitymarket.com/,https://www.ncg.coop/,39.78254691,-84.238850791
08901,,,,89 Morris Street,,New Brunswick,NJ,George Street Co-op Natural Foods,732 247-8280,,,Food for change,,40.488574858,-74.445414651
08901,,,,89MorrisStreet,,New Brunswick,NJ,GeorgeStreetCo-op,732-247-8280,http://www.Georgestreetcoop.com,,https://www.nationalco-opdirectory.com,,40.488574858,-74.445414651
12801,,,,11SouthStreet,,"Glens Falls, New York",NY,GlensFallsFoodCo-op,518-683-2769,http://glensfallscoop.com,,https://www.nationalco-opdirectory.com,,43.311443238,-73.647802315
20712,,,,4005 34th Street,,Mount Rainier,MD,Glut Food Co-op,301 779-1978,,,Food for change,,38.941847481,-76.964703462
20712,,,,400534thSt.,,"Mount Rainier, Maryland",MD,GlutFoodCo-op,301-779-1978,http://www.glut.org,,https://www.nationalco-opdirectory.com,,38.941847481,-76.964703462
56303,,,,2010 Veterans Drive,,St. Cloud,MN,Good Earth Food Co-op,(320) 253-9290,info@goodearthcoop.coop,,http://www.goodearthfoodcoop.coop,https://www.ncg.coop/,45.573766044,-94.200444516
59101,,,,3024 2nd Avenue,,Billings,MT,Good Earth Market,406 259-2622,,,Food for change,,45.776086445,-108.511779306
55901,,,,1001 6th Street,,Rochester,MN,Good Food Store Co-op,507 289-9061,,,Food for change,,44.058286372,-92.501438727
40503,,,,455-D Southland Dr.,,Lexington,KY,Good Foods Co-op,(859) 278-1813,,,http://www.goodfoods.coop,https://www.ncg.coop/,38.012761896,-84.5277836
40503,,,,455 Southland Drive,,Lexington,KY,Good Foods Market & Cafe,859 278-1813,,,Food for change,,38.012761896,-84.5277836
04841,,,,750 Main Street,,Rockland,ME,Good Tern Natural Foods Store,207 594-8822,,,Food for change,,44.108665822,-69.115625517
56303,,,,2010VeteransDrive,,Saint-Cloud,MN,GoodEarthFoodCo-op,320-253-9290,http://www.GoodEarthFoodCoop.coop,,https://www.nationalco-opdirectory.com,,45.573766044,-94.200444516
59101,,,,30242ndAveNorth,,"Billings, Montana",MT,GoodEarthMarket(CLOSED),406-259-2622,http://www.goodearthmarket.coop,,https://www.nationalco-opdirectory.com,,45.776086445,-108.511779306
40503,,,,455-DSouthlandDrive,,"Lexington, Kentucky",KY,GoodFoodsCo-op,859-278-1813,http://www.goodfoods.coop,,https://www.nationalco-opdirectory.com,,38.012761896,-84.5277836
53081,,,,1131North8thStreet,,"Sheboygan, Wisconsin",WI,GoodsideGroceryFoodCo-op,920-694-0053,http://goodsidegrocery.com/,,https://www.nationalco-opdirectory.com,,43.737127971,-87.729358234
04841,,,,750MainSt,,"Rockland County, New York",ME,GoodTernNaturalFoodsCo-op,207-594-8822,http://www.goodtern.coop,,https://www.nationalco-opdirectory.com,,44.108665822,-69.115625517
49770,,,,220 East Mitchell Street,,Petoskey,MI,Grain Train Natural Foods Market,231 347-2381,,,Food for change,,45.361855604,-84.925402079
49712,,,,104 South Park Street,,Boyne City,MI,Grain Train Natural Foods Market (Boyne City),(231) 459-4522,,,http://www.graintrain.coop,https://www.ncg.coop/,45.226471731,-85.023454566
49770,,,,220 East Mitchell Street,,Petoskey,MI,Grain Train Natural Foods Market (Petoskey),(231) 347-2381,,,http://www.graintrain.coop,https://www.ncg.coop/,45.361855604,-84.925402079
49770,,,,220EastMitchellStreet,,"Petoskey, Michigan",MI,GrainTrainNaturalFoodsGrocery(2Stores),231-347-2381,http://www.graintrain.coop,,https://www.nationalco-opdirectory.com,,45.361855604,-84.925402079
56278,,,,47 2nd Street,,Ortonville,MN,Granary Food Co-op,320 839-6204,,,Food for change,,45.318443848,-96.455243811
55303,,,,1917 2nd Ave,,Anoka,MN,Grass Roots Cooperative,763 427-4340,,,Food for change,,45.251816763,-93.414853617
89501,,,,240 Court Street,,Reno,NV,Great Basin Community Food Co-op,(775) 324-6133,info@greatbasinfood.coop,,http://www.greatbasinfood.coop,https://www.ncg.coop/,39.525005622,-119.813665182
89501,,,,240CourtStreet,,"Reno, Nevada",NV,GreatBasinFoodCo-op,775-324-6133,http://www.greatbasinfood.coop,,https://www.nationalco-opdirectory.com,,39.525005622,-119.813665182
03608,,,,,,"Walpole, Massachusetts",NH,GreatRiverCo-op(*Organizing),603-477-4732,http://www.greatriverfoodcoop.com,,https://www.nationalco-opdirectory.com,,43.074178871,-72.417887771
01301,,,,144 Main Street,,Greenfield,MA,Green Fields Market,413 773-9567,,,Food for change,,42.59781595,-72.604415498
42141,,,,130 N Race St.,,Glasgow,KY,Green Market Co-op,270 629-2628,,,Food for change,,36.975726516,-85.921939117
61701,,,,921 E Washington Street,,Bloomington,IL,Green Top Grocery,(309) 306-1523,info@greentopgrocery.com,,http://www.greentopgrocery.com,https://www.ncg.coop/,40.479736996,-88.98934972
20770,,,,121 Centerway,,Greenbelt,MD,Greenbelt Consumer Cooperative,301 474-0522,,,Food for change,,38.994411946,-76.873237739
20770,,,,121 Centerway,,Greenbelt,MD,Greenbelt Co-op Supermarket and Pharmacy,(301) 474-0522,,,https://www.greenbelt.coop/,https://www.ncg.coop/,38.994411946,-76.873237739
20770,,,,121Centerway,,"Greenbelt, Maryland",MD,GreenbeltCo-opSupermarket&Pharmacy,301-474-0522,http://www.greenbelt.coop,,https://www.nationalco-opdirectory.com,,38.994411946,-76.873237739
11238,,,,18 Putnam Avenue,,Brooklyn,NY,Greene Hill Food Co-op,718 208-4778,,,Food for change,,40.681051797,-73.963589232
11238,,,,1083FultonSt,,Brooklyn,NY,GreeneHillFoodCo-op,718-208-4778,http://www.greenehillfood.coop,,https://www.nationalco-opdirectory.com,,40.681051797,-73.963589232
14850,,,,701 W Buffalo St,,Ithaca,NY,GreenStar Cooperative Market,607 273-9392,,,Food for change,,42.447540556,-76.492323597
14850,,,,307 College Avenue,,Ithaca,NY,GreenStar Food Co+op (Collegetown),(607) 273-2667,,,http://www.greenstar.coop,https://www.ncg.coop/,42.447540556,-76.492323597
14850,,,,215 N. Cayuga St.,,Ithaca,NY,GreenStar Food Co+op (DeWitt),(607) 273-8210,,,http://www.greenstar.coop,https://www.ncg.coop/,42.447540556,-76.492323597
14850,,,,770 Cascadilla Street,,Ithaca,NY,GreenStar Food Co+op (West End),(607) 273-9392,,,http://www.greenstar.coop,https://www.ncg.coop/,42.447540556,-76.492323597
14850,,,,307CollegeAve.,,"Ithaca, New York",NY,GreenStarCooperativeMarket(3stores)•Collegetownlocation,607-882-2667,http://www.greenstar.coop,,https://www.nationalco-opdirectory.com,,42.447540556,-76.492323597
14850,,,,215N.CayugaStreet,,"Ithaca, New York",NY,GreenStarCooperativeMarket(3stores)•DewittMalllocation,607-273-8213,http://www.greenstar.coop,,https://www.nationalco-opdirectory.com,,42.447540556,-76.492323597
14850,,,,770CascadillaSt,,"Ithaca, New York",NY,GreenStarCooperativeMarket(3stores)•WestEndlocation,607-273-9392,http://www.greenstar.coop,,https://www.nationalco-opdirectory.com,,42.447540556,-76.492323597
48858,,,,410 West Broadway,,Mt. Pleasant,MI,GreenTree Co-op Market,(989) 772-3221,laura@greentree.coop,,http://www.greentree.coop,https://www.ncg.coop/,43.594793909,-84.781300742
48858,,,,214 North Franklin Street,,Mount Pleasant,MI,Greentree Natural Grocery,989 772-3221,,,Food for change,,43.594793909,-84.781300742
48858,,,,410WestBroadwayStreet,,"Mount Pleasant, Michigan",MI,GreenTreeCooperativeGrocery,989-772-3221,http://www.greentree.coop,,https://www.nationalco-opdirectory.com,,43.594793909,-84.781300742
97401,,,,454Willamette,,"Eugene, Oregon",OR,GrowersMarket,541-687-1145,http://www.growersmarket.net/,,https://www.nationalco-opdirectory.com,,44.071374776,-123.076951505
56727,,,,102S.MainAve.,,"Grygla, Minnesota",MN,GryglaCo-opCompany,218-294-6232,N/A,,https://www.nationalco-opdirectory.com,,48.305239132,-95.534700604
55114,,,,928 Raymond Avenue,,St. Paul,MN,Hampden Park Co-op,(651) 646-6686,,,https://www.hampdencoop.com/,https://www.ncg.coop/,44.964957879,-93.195780765
55114,,,,928RaymondAvenue,,"Saint Paul, Minnesota",MN,HampdenParkCo-op,651-646-6686,http://www.hampdencoop.com,,https://www.nationalco-opdirectory.com,,44.964957879,-93.195780765
03755,,,,45 South Park Street,,Hanover,NH,Hanover Co-op Food Stores (Hanover),(603) 643-2667,,,http://www.coopfoodstore.com,https://www.ncg.coop/,43.705203304,-72.279782782
03766,,,,12 Centerra Resource Park,,Lebanon,NH,Hanover Co-op Food Stores (Lebanon),(603) 643-2667,,,http://www.coopfoodstore.com,https://www.ncg.coop/,43.645572112,-72.25238524
05001,,,,209 Maple Street,,White River Junction,VT,Hanover Co-op Food Stores (White River Junction),(802) 295-3400,,,http://www.coopfoodstore.com,https://www.ncg.coop/,43.665144835,-72.366536217
03755,,,,43 Lyme Road,,Hanover,NH,Hanover Co-op Market (Hanover),(603) 643-2725,,,http://www.coopfoodstore.com,https://www.ncg.coop/,43.705203304,-72.279782782
03755,,,,45SParkSt,,"Hanover, New Hampshire",NH,HanoverCo-opFoodStore(4FoodStores•1AutoServiceCenter)•1stLocation,603-643-2667,http://www.coopfoodstore.coop,,https://www.nationalco-opdirectory.com,,43.705203304,-72.279782782
03755,,,,43LymeRoad,,"Hanover, New Hampshire",NH,HanoverCo-opFoodStore(4FoodStores•1AutoServiceCenter)•Co-opCommunityMarket,603-643-2725,http://www.coopfoodstore.coop,,https://www.nationalco-opdirectory.com,,43.705203304,-72.279782782
05001,,,,209MapleStreet(Route4&14),,"White River Junction, Vermont",VT,"HanoverCo-opFoodStore(4FoodStores•1AutoServiceCenter)•Co-opFoodStoreofWhiteRiverJunction,VT",802-295-3400,http://www.coopfoodstore.coop,,https://www.nationalco-opdirectory.com,,43.665144835,-72.366536217
03755,,,,45SouthParkStreet,,"Hanover, New Hampshire",NH,HanoverCo-opFoodStore(4FoodStores•1AutoServiceCenter)•Co-opServiceCenter,603-643-6650,http://www.coopfoodstore.coop,,https://www.nationalco-opdirectory.com,,43.705203304,-72.279782782
03766,,,,12CenterraParkway,,"Lebanon, New Hampshire",NH,HanoverCo-opFoodStore(4FoodStores•1AutoServiceCenter)•LebanonCo-opFoodStore,(603)643-4889,http://www.coopfoodstore.coop,,https://www.nationalco-opdirectory.com,,43.645572112,-72.25238524
56601,,,,302 Irvine Ave NW,,Bemidji,MN,Harmony Natural Foods Co-op,(218) 751-2009,,,http://www.harmonyfoods.coop,https://www.ncg.coop/,47.496628629,-94.856990402
56601,,,,302IrvineAveNW,,"Bemidji, Minnesota",MN,HarmonyFoodCo-op,218-751-2009,https://www.harmonyfoods.coop,,https://www.nationalco-opdirectory.com,,47.496628629,-94.856990402
02130,,,,3815 Washington St,,Jamaica Plain,MA,Harvest Co-op,617 405-5300,,,Food for change,,42.311626813,-71.109466685
02130,,,,57 South Street,,Boston,MA,Harvest Coop Markets,617 524-1667,,,Food for change,,42.311626813,-71.109466685
02139,,,,580 Massachusetts Avenue,,Cambridge,MA,Harvest Co-op Markets,617 661-1580,,,Food for change,,42.363932497,-71.101749521
55356,,,,2380 Wayzata Boulevard,,LongLake,MN,Harvest Moon,952 345-3300,,,Food for change,,44.987794466,-93.58505386
02139,,,,580MassachusettsAvenue,,"Cambridge, Massachusetts",MA,HarvestCo-opMarkets(2stores)•1stlocation(CLOSED),617-661-1580,http://www.harvest.coop,,https://www.nationalco-opdirectory.com,,42.363932497,-71.101749521
02131,,,,3815WashingtonSt,,Boston,MA,HarvestCo-opMarkets(2stores)•2ndlocation(CLOSED),617-405-5300,http://www.harvest.coop,,https://www.nationalco-opdirectory.com,,42.283505366,-71.128928394
66062,,,,16579W151stSt,,"Olathe, Kansas",KS,HarvestMoonNaturalFoodsCooperativeInc.,(913)782-7562,https://harvestmoonnaturalfoods.com/,,https://www.nationalco-opdirectory.com,,38.866769491,-94.779148928
24450,,,,110 West Washington Street,,Lexington,VA,Healthy Foods Co-op,540 463-6954,,,Food for change,,37.78655111,-79.454407839
28792,,,,715 South Grove Street,,Hendersonville,NC,Hendersonville Community Co-op,828 693-0505,,,Food for change,,35.360107087,-82.404419608
28792,,,,60 South Charleston Lane,,Hendersonville,NC,Hendersonville Community Co-op (South Charleston Lane),(828) 693-0505,,,http://www.hendersonville.coop,https://www.ncg.coop/,35.360107087,-82.404419608
28792,,,,147 First Avenue East,,Hendersonville,NC,Hendersonville Community Co-op (Sunflower Kitchen),N/A,,,http://www.hendersonville.coop,https://www.ncg.coop/,35.360107087,-82.404419608
28792,,,,60SouthCharlestonLane,,"Hendersonville, North Carolina",NC,HendersonvilleCommunityCo-op,828-693-0505,http://www.hendersonville.coop,,https://www.nationalco-opdirectory.com,,35.360107087,-82.404419608
12440,,,,1398 Route 213,,High Falls,NY,High Falls Food Co-op,(845) 687-7262,,,http://www.highfallsfoodcoop.com,https://www.ncg.coop/,41.813373025,-74.140658897
12440,,,,1398 New York 213,,HighFalls,NY,High Falls Food Co-op Inc.,845 687-7262,,,Food for change,,41.813373025,-74.140658897
12440,,,,1398StateRoute213,,"High Falls, New York",NY,HighFallsFoodCo-op,845-687-7262,http://www.highfallsfoodcoop.com/,,https://www.nationalco-opdirectory.com,,41.813373025,-74.140658897
80237,,,,7900E.UnionAveSte.200,,Denver,CO,HighPlainsFoodCooperative(*NotaStorefront),785-626-6082,http://www.highplainsfood.org,,https://www.nationalco-opdirectory.com,,39.640511636,-104.900342655
97123,,,,POBox3953,,"Hillsboro, Oregon",OR,HillsboroFoodCo-op(ORGANIZING),971-205-2374,https://hillsborofood.coop/,,https://www.nationalco-opdirectory.com,,45.498692616,-122.940229665
49242,,,,30NHowellSt,,"Hillsdale Township, Michigan",MI,HillsdaleFamilyFoodCo-op,517-439-1397,https://www.hillsdalenaturalgrocery.com/,,https://www.nationalco-opdirectory.com,,41.902538738,-84.6305369
12206,,,,100 Watervliet Avenue,,Albany,NY,Honest Weight Food Co-op,(518) 482-2667,,,http://www.honestweight.coop,https://www.ncg.coop/,42.668887368,-73.775601836
12206,,,,100WatervlietAve,,"Albany, New York",NY,HonestWeightFoodCo-op,518-482-2667,http://www.honestweight.coop,,https://www.nationalco-opdirectory.com,,42.668887368,-73.775601836
52301,,,,1000EastHiltonStreet,,"Marengo, New York",IA,HoneyCreekMarket,608-546-3331,N/A,,https://www.nationalco-opdirectory.com,,41.765508104,-92.087595901
29306,,,,176N.LibertyStreet,,"Spartanburg, South Carolina",SC,HubCityCo-operative(CLOSED),N/A,http://www.hubcity.coop,,https://www.nationalco-opdirectory.com,,34.920227138,-81.932386623
05602,,,,623 Stone Cutters Way,,Montpelier,VT,Hunger Mountain Co-op,(802) 223-8000,info@hungermountain.coop,,http://www.hungermountain.coop,https://www.ncg.coop/,44.260445878,-72.580310757
05602,,,,623 Stone Cutters Way,,Montpelier,VT,Hunger Mountain Food Coop,802 223-8000,,,Food for change,,44.260445878,-72.580310757
05602,,,,623StonecuttersWay,,"Montpelier, Vermont",VT,HungerMountainCo-op,802-223-8000,http://www.hungermountain.coop,,https://www.nationalco-opdirectory.com,,44.260445878,-72.580310757
10977,,,,841 Chestnut Ridge Road,,Chestnut Ridge,NY,Hungry Hollow Co-op,(845) 356-3319,,,http://www.hungryhollow.org,https://www.ncg.coop/,41.118464284,-74.046308094
10977,,,,841ChestnutRidgeRoad,,"Chestnutridge, Missouri",NY,HungryHollowCo-op,845-356-3319,http://www.hungryhollow.coop,,https://www.nationalco-opdirectory.com,,41.118464284,-74.046308094
83714,,,,120 E 46th St,,Garden City,ID,Idaho's Bounty,208 577-6199,,,Food for change,,43.677846355,-116.275291253
83711,,,,POBox45755,,"Boise, Idaho",ID,Idaho'sBounty(*NotaStorefront),208-721-8074,http://www.idahosbounty.org,,https://www.nationalco-opdirectory.com,,,
50310,,,,4944 Franklin Avenue,,Des Moines,IA,Iowa Food Cooperative,515 978-1034,,,Food for change,,41.62536761,-93.673866725
50310,,,,4944FranklinAve.Ste.G,,"Ames, Iowa",IA,IowaFoodCooperative(Multiplepickuplocations),515.978.1034,http://www.iowafood.org,,https://www.nationalco-opdirectory.com,,41.62536761,-93.673866725
93117,,,,6575 Seville Road,,Isla Vista,CA,Isla Vista Food Co-op,(805) 968-1401,ivfc.outreach@gmail.com,,http://www.islavistafood.coop,https://www.ncg.coop/,34.433484607,-119.862477971
54829,,,,1490 2nd Avenue,,Cumberland,WI,Island City Food Co-op Bakery,715 822-8233,,,Food for change,,45.548107072,-92.039780767
04681,,,,S Burnt Cove Road,,Stonington,ME,Island Employee Cooperative,207 367-2681,,,Food for change,,44.166790496,-68.665446516
54829,,,,14902ndAvenue,,"Cumberland (town), Wisconsin",WI,IslandCityFoodCo-op,715-822-8233,http://www.islandcityfoodcoop.com,,https://www.nationalco-opdirectory.com,,45.548107072,-92.039780767
93117,,,,6575SevilleRoad,,"Isla Vista, California",CA,IslaVistaFoodCo-op,805-968-1401,http://islavistafoodcoop.blogspot.com/,,https://www.nationalco-opdirectory.com,,34.433484607,-119.862477971
55057,,,,516 Water Street South,,Northfield,MN,Just Food Co-op,(507) 650-0106,,,http://www.justfood.coop,https://www.ncg.coop/,44.476898316,-93.172687248
54701,,,,1117 South Farwell Street,,Eau Claire,WI,Just Local Food Cooperative,715 552-3366,,,Food for change,,44.778988168,-91.484031141
55057,,,,516S.WaterStreet,,"Northfield, Minnesota",MN,JustFoodCo-op,507-650-0106,http://www.justfood.coop,,https://www.nationalco-opdirectory.com,,44.476898316,-93.172687248
49007,,,,507 Harrison St.,,Kalamazoo,MI,Kalamazoo People's Food Co-op,269-342-5686,,,Food for change,,42.296718886,-85.58684473
03257,,,,52 Newport Road New,,New London,NH,Kearsarge Cooperative Grocer,603 526-6650,,,Food for change,,43.416338133,-71.994998761
44240,,,,151 East Main Street,,Kent,OH,Kent Natural Foods Co-op,330 673-2878,,,Food for change,,41.149480956,-81.35281921
49930,,,,1035 Ethel Ave. Hancock,,Hancock,MI,Keweenaw Co-op,906 482-2030,,,Food for change,,47.129471554,-88.586324605
49930,,,,1035 Ethel Avenue,,Hancock,MI,Keweenaw Co-op Market & Deli,(906) 482-2030,info@keweenaw.coop,,http://www.keweenaw.coop,https://www.ncg.coop/,47.129471554,-88.586324605
54631,,,,209 Main Street,,GaysMills,WI,Kickapoo Exchange Natural Food,608 735-4544,,,Food for change,,43.294046866,-90.830617182
96826,,,,2643 S. King St.,,Honolulu,HI,Kokua Market Natural Foods,808-941-1922,,,Food for change,,21.29144687,-157.827090431
87301,,,,105 East Coal,,Gallup,NM,La Montañita Co-op (Gallup),(505) 863-5383,,,http://www.lamontanita.coop,https://www.ncg.coop/,35.528766415,-108.754923908
87106,,,,3500 Central Ave. S.E.,,Albuquerque,NM,La Montañita Co-op (Nob Hill),(505) 265-4631,,,http://www.lamontanita.coop,https://www.ncg.coop/,35.077372471,-106.611888243
87104,,,,2400 Rio Grande,,Albuquerque,NM,La Montañita Co-op (Rio Grande),(505) 242-8800,,,http://www.lamontanita.coop,https://www.ncg.coop/,35.100215954,-106.666839555
87501,,,,913 West Alameda,,Santa Fe,NM,La Montañita Co-op (Santa Fe),(505) 984-2852,,,http://www.lamontanita.coop,https://www.ncg.coop/,35.689236444,-105.942077596
87104,,,,2400 Rio Grande Boulevard,,Albuquerque,NM,La Montanita Co-op Food Market,505 242-8800,,,Food for change,,35.100215954,-106.666839555
55317,,,,435 Pond Promenade,,Chanhassen,MN,Lakewinds Food Co-op (Chanhassen),(952) 697-3366,,,http://www.lakewinds.com,https://www.ncg.coop/,44.866826618,-93.545698838
55345,,,,17501 Minnetonka Boulevard,,Minnetonka,MN,Lakewinds Food Co-op (Minnetonka),(952) 473-0292,,,http://www.lakewinds.com,https://www.ncg.coop/,44.915308023,-93.485444479
55423,,,,6420 Lyndale Avenue South,,Richfield,MN,Lakewinds Food Co-op (Richfield),(612) 814-8000,,,http://www.lakewinds.coop,https://www.ncg.coop/,44.87738141,-93.282051769
55345,,,,17501 Minnetonka Blvd.,,Minnetonka,MN,Lakewinds Natural Foods,952 473-0292,,,Food for change,,44.915308023,-93.485444479
01054,,,,180 Rattlesnake Gutter Road,,Leverett,MA,Leverett Village Co-op,413 367-9794,,,Food for change,,42.4611144,-72.498417375
14222,,,,807 Elmwood Ave.,,Buffalo,NY,Lexington Cooperative Market (Elmwood),(716) 886-2667,,,http://www.lexington.coop,https://www.ncg.coop/,42.916086627,-78.877160271
14216,,,,1678 Hertel Avenue,,Buffalo,NY,Lexington Cooperative Market (Hertel),(716) 886-0024,,,http://www.lexington.coop,https://www.ncg.coop/,42.949994111,-78.85945548
14222,,,,807 Elmwood Ave,,Buffalo,NY,Lexington Real Foods Community,716-886- 2667,,,Food for change,,42.916086627,-78.877160271
30062,,,,1453 Roswell Road,,Marietta,GA,Life Grocery & Cafe,770 977-9583,,,Food for change,,33.998168744,-84.470154193
55410,,,,3815 Sunnyside Avenue,,Minneapolis,MN,Linden Hills Co-op,(612) 922-1159,info@lindenhills.coop,,http://www.lindenhills.coop,https://www.ncg.coop/,44.918395481,-93.319661669
03561,,,,43 Bethlehem Road,,Littleton,NH,Littleton Food Co-op,(603) 444-2800,marketing@littletoncoop.org,,http://www.littletoncoop.com,https://www.ncg.coop/,44.306992403,-71.778475382
44691,,,,140 S Walnut St.,,Wooster,OH,Local Roots Market & Cafe,330 263-5336,,,Food for change,,40.806980373,-81.946788956
87544,,,,95 Entrada Drive,,Los Alamos,NM,Los Alamos Cooperative Market,(505) 695-1579,info@losalamos.coop,,http://www.losalamos.coop,https://www.ncg.coop/,35.878041676,-106.303123616
47454,,,,26 Library St,,Paoli,IN,Lost River Market & Deli,812 723-3735,,,Food for change,,38.547376607,-86.473589784
99201,,,,44 W. Main Avenue,,Spokane,WA,Main Market Co-op,(509) 458-2667,info@mainmarket.coop,,http://www.mainmarket.coop/,https://www.ncg.coop/,47.660936289,-117.42799621
54868,,,,1 S Main St,,Rice Lake,WI,Main Street Market Co-op,715 234-7045,,,Food for change,,45.512118629,-91.72754486
94607,,,,1430 7th Street,,Oakland,CA,Mandela Foods Cooperative,510 452-1133,,,Food for change,,37.800516245,-122.277021623
46526,,,,314 S. Main St.,,Goshen,IN,Maple City Market,(574) 534-2355,brad@maplecitymarket.com,,http://www.maplecitymarket.com,https://www.ncg.coop/,41.569468585,-85.845655748
19143,,,,4824 Baltimore Avenue,,Philadelphia,PA,Mariposa Food Co-op,(215) 729-2121,mariposa@mariposa.coop,,http://www.mariposa.coop,https://www.ncg.coop/,39.943270181,-75.222942213
04743,,,,26 Market St.,,Fort Kent,ME,Market St. Co-op,,,,Food for change,,47.236562385,-68.589740495
49855,,,,109 West Baraga Avenue,,MarquetteTownship,MI,Marquette Food Co-op,906 225-0671,,,Food for change,,46.534367369,-87.396813215
49855,,,,502 West Washington Street,,Marquette,MI,Marquette Food Co-op (Washington St.),(906) 225-0671,info@marquettefood.coop,,http://www.marquettefood.coop,https://www.ncg.coop/,46.534367369,-87.396813215
04921,,,,5 Veterans Hwy,,Brooks,ME,Marsh River Cooperative,207 722-3212,,,Food for change,,44.542422152,-69.131733745
20742,,,,B0203 Stamp Student Union,,University of MarylandCollege Park,MD,Maryland Food Co-op,301 314-8089,,,Food for change,,38.988949766,-76.941587626
01370,,,,McCusker's Market3 State St,,Shelburne Falls,MA,McCusker's Market,413 625-9411,,,Food for change,,42.605708958,-72.729273238
97501,,,,945 S Riverside Ave,,Medford,OR,Medford Food Co-op,(541) 779-2667,info@medfordfood.coop,,http://www.medfordfood.coop,https://www.ncg.coop/,42.320191115,-122.88835987
54751,,,,521 2nd Street,,East Menomonie,WI,Menomonie Market Food Co-op,715 235-6533,,,Food for change,,44.870831978,-91.9244655
54701,,,,1117 South Farwell Street,,Eau Claire,WI,Menomonie Market Food Co-op (Eau Claire),(715) 552-3366,info@mmfc.coop,,http://www.mmfc.coop/,https://www.ncg.coop/,44.778988168,-91.484031141
54751,,,,"814 Main Street, East",,Menomonie,WI,Menomonie Market Food Co-op (Menomonie),(715) 235-6533,info@mmfc.coop,,http://www.mmfc.coop,https://www.ncg.coop/,44.870831978,-91.9244655
05753,,,,9 Washington Street,,Middlebury,VT,Middlebury Natural Foods Co-op,(802) 388-7276,info@middleburycoop.com,,http://www.middleburycoop.com,https://www.ncg.coop/,44.011045522,-73.153585242
56342,,,,47816 Main St,,Isle,MN,Mille Lacs Area Food Co-op,320 676-3813,,,Food for change,,46.152328209,-93.434861976
55106,,,,740 East 7th Street,,Saint Paul,MN,Mississippi Market (East 7th Street),(651) 495-5602,,,http://www.msmarket.coop,https://www.ncg.coop/,44.961496771,-93.055211386
55104,,,,622 Selby Avenue,,Saint Paul,MN,Mississippi Market (Selby),(651) 310-9499,,,http://www.msmarket.coop,https://www.ncg.coop/,44.954306518,-93.156696865
55102,,,,1500 West 7th Street,,Saint Paul,MN,Mississippi Market (West 7th Street),(651) 690-0507,,,http://www.msmarket.coop,https://www.ncg.coop/,44.941141301,-93.121092819
55104,,,,622 Selby Avenue,,SaintPaul,MN,Mississippi Market Natural Foods Co-op,651 310-9499,,,Food for change,,44.954306518,-93.156696865
59802,,,,1500 Burns Street,,Missoula,MT,Missoula Community Food Co-op,406 728-2369,,,Food for change,,46.87567117,-113.993846882
12095,,,,30 North Main Street,,Gloversville,NY,Mohawk Harvest Cooperative Market,518 706-0681,,,Food for change,,43.014676641,-74.380980393
03431,,,,34 Cypress Street,,Keene,NH,Monadnock Food Co-op,(603) 355-8008,marketing@monadnockfood.coop,,http://www.monadnockfood.coop,https://www.ncg.coop/,42.937628277,-72.289562
45056,,,,512 S Locust St.,,Oxford,OH,Moon Co-op,513 280-5020,,,Food for change,,39.501733746,-84.742012644
84532,,,,39 E 100 N Moab,,Moab,UT,Moonflower Community Cooperative,435 259-5712,,,Food for change,,38.570466692,-109.547782186
83843,,,,121 East 5th Street,,Moscow,ID,Moscow Food Co-op,(208) 882-8537,,,http://www.moscowfood.coop,https://www.ncg.coop/,46.729726831,-116.999025331
98328,,,,105 Carter Street,,Eatonville,WA,Mountain Community Co-op,360 832-2667,,,Food for change,,46.871009242,-122.288647968
80466,,,,30 East 1st Street,,Nederland,CO,Mountain People's Co-op,303 258-7500,,,Food for change,,39.96251497,-105.508959249
26505,,,,1400 University Avenue,,Morgantown,WV,Mountain People's Co-op Inc.,304 291-6131,,,Food for change,,39.644079225,-79.954700669
88001,,,,1300 El Paseo Road,,Las Cruces,NM,Mountain View Market Co-op,575 523-0436,,,Food for change,,32.288216044,-106.754435314
55114,,,,2380 Wycliff Street,,Saint Paul,MN,National Co-op Grocers,651 379-1480,,,Food for change,,44.964957879,-93.195780765
57401,,,,125 South Main Street,,Aberdeen,SD,Natural Abundance,605 229-4947,,,Food for change,,45.453772715,-98.47342614
57401,,,,112 North Main Street,,Aberdeen,SD,Natural Abundance Food Co-op,(605) 229-4947,natabu@nvc.net,,http://www.naturalabundance.org/,https://www.ncg.coop/,45.453772715,-98.47342614
54853,,,,241 South Main Street,,Luck,WI,Natural Alternative Food Co-op,715 472-8084,,,Food for change,,45.563332486,-92.439841212
55355,,,,230 North Sibley Avenue,,Litchfield,MN,Natural Food Co-op,320 693-7539,,,Food for change,,45.103301527,-94.527635034
93401,,,,745 Francis Street,,San Luis Obispo,CA,Natural Foods Co-op of SLO,805 544-7928,,,Food for change,,35.257192227,-120.653341914
55792,,,,505 3rd Street,,Virginia,MN,Natural Harvest Co-op,218 741-4663,,,Food for change,,47.521464008,-92.537730878
55792,,,,732 North 4th Street,,Virginia,MN,Natural Harvest Food Co-op,(218) 741-4663,,,http://naturalharvest.coop/,https://www.ncg.coop/,47.521464008,-92.537730878
68509,,,,P.O. Box 94691,,Lincoln,NE,Nebraska Food Cooperative,800 993-2379,,,Food for change,,40.81017225,-96.69974705
62901,,,,1815 West Main Street,,Carbondale,IL,Neighborhood Co-op Grocery,(618) 529-3533,info@neighborhood.coop,,http://www.neighborhood.coop,https://www.ncg.coop/,37.720269684,-89.215013261
32301,,,,1235 Apalachee Parkway,,Tallahassee,FL,New Leaf Market & Deli,850 942-2557,,,Food for change,,30.435411708,-84.253875188
70117,,,,2372 St. Claude Avenue,,New Orleans,LA,New Orleans Food Co-op,(504) 264-5579,,,http://www.nolafood.coop,https://www.ncg.coop/,29.969418335,-90.035256516
52402,,,,"3338 Center Point Road, NE",,Cedar Rapids,IA,New Pioneer Co-op (Cedar Rapids),(319) 365-2632,newpi@newpi.coop,,http://www.newpi.coop,https://www.ncg.coop/,42.017529968,-91.652954704
52241,,,,1101 2nd Street,,Coralville,IA,New Pioneer Co-op (Coralville),(319) 358-5513,newpi@newpi.coop,,http://www.newpi.coop,https://www.ncg.coop/,41.690375918,-91.584694736
52240,,,,22 South Van Buren,,Iowa City,IA,New Pioneer Co-op (Iowa City),(319) 338-9441,newpi@newpi.coop,,http://www.newpi.coop,https://www.ncg.coop/,41.652035219,-91.515535589
52240,,,,22 South Van Buren Street,,IowaCity,IA,New Pioneer Food Coop,319 338-9441,,,Food for change,,41.652035219,-91.515535589
19711,,,,280 East Main Street,,Newark,DE,Newark Natural Foods,302 368-5894,,,Food for change,,39.698811314,-75.742467502
19711,,,,209 Newark Shopping Center,,Newark,DE,Newark Natural Foods Co-op,(302) 368-5894,,,http://www.newarknaturalfoods.com/,https://www.ncg.coop/,39.698811314,-75.742467502
95521,,,,811 I Street,,Arcata,CA,North Coast Co-op (Arcata),(707) 822-5947,,,http://www.northcoast.coop/,https://www.ncg.coop/,40.870563312,-124.088358298
95501,,,,25 4th Street,,Eureka,CA,North Coast Co-op (Eureka),(707) 443-6027,,,http://northcoast.coop/,https://www.ncg.coop/,40.795885926,-124.156607492
95501,,,,25 4th Street,,Eureka,CA,North Coast Co-op Eureka,707 443-6027,,,Food for change,,40.795885926,-124.156607492
12901,,,,25 Bridge Street,,Plattsburgh,NY,North Country Food Co-op,518 561-5904,,,Food for change,,44.698130824,-73.467223333
49938,,,,116 South Suffolk Street,,Ironwood,MI,Northwind Natural Foods Co-op,906 932-3547,,,Food for change,,46.468036386,-90.157926147
55041,,,,67011 Highway 63,,Lake City,MN,Oak Center General Store,507 753-2080,,,Food for change,,44.448880283,-92.286522413
92107,,,,4765 Voltaire Street,,San Diego,CA,Ocean Beach People's Organic Food Co-op,(619) 224-1387,,,http://www.obpeoplesfood.coop,https://www.ncg.coop/,32.739970435,-117.24449933
92107,,,,4765 Voltaire Street,,SanDiego,CA,Ocean Beach People's Organic Foods Market,619 224-1387,,,Food for change,,32.739970435,-117.24449933
97365,,,,159 Southeast 2nd Street,,Newport,OR,Oceana Natural Foods Co-op,541 265-8285,,,Food for change,,44.639796477,-124.054851223
98855,,,,21 West 4th Street,,Tonasket,WA,Okanogan River Natural Foods,509 486-4188,,,Food for change,,48.70426009,-119.440630339
73108,,,,311 South Klein Avenue,,OklahomaCity,OK,Oklahoma Food Cooperative,405 605-8088,,,Food for change,,35.449136754,-97.56522879
01026,,,,445 Berkshire Trail,,Cummington,MA,Old Creamery Grocery,413 634-5560,,,Food for change,,42.455870592,-72.893645792
63106,,,,2718 North 13th Street,,St.Louis,MO,Old North Grocery Co-op,314 260-9276,,,Food for change,,38.644708681,-90.206251579
98502,,,,921 Rogers Street,,Northwest Olympia,WA,Olympia Food Co-op,360 754-7666,,,Food for change,,47.095375617,-122.969370298
98501,,,,3111 Pacific Ave. SE,,Olympia,WA,Olympia Food Co-op (Eastside),(360) 956-3870,,,http://www.olympiafood.coop,https://www.ncg.coop/,47.019285586,-122.884261466
98502,,,,921 North Rogers St. NW,,Olympia,WA,Olympia Food Co-op (Westside),(360) 754-7666,,,http://www.olympiafood.coop,https://www.ncg.coop/,47.095375617,-122.969370298
52101,,,,312 W. Water Street,,Decorah,IA,Oneota Community Co-op,(563) 382-4666,customerservice@oneotacoop.com,,http://www.oneotacoop.com,https://www.ncg.coop/,43.326059101,-91.779245916
52101,,,,312 West Water Street,,Decorah,IA,Oneota Community Food Co-op,563 382-4666,,,Food for change,,43.326059101,-91.779245916
68502,,,,1618 South St.,,Lincoln,NE,Open Harvest Cooperative Grocery,(402) 475-9069,,,http://www.openharvest.coop,https://www.ncg.coop/,40.791748687,-96.702118149
98245,,,,"138-B North Beach Rd, #913",,Eastsound,WA,Orcas Food Co-op,(360) 376-2009,,,http://www.orcasfood.coop,https://www.ncg.coop/,48.678047342,-122.913265873
49684,,,,260 E. 10th St.,,Traverse City,MI,Oryana Community Co-op (Downtown),(231) 947-0191,,,http://www.oryana.coop,https://www.ncg.coop/,44.749708063,-85.653165402
49684,,,,3587 Marketplace Circle,,Traverse City,MI,Oryana Community Co-op (West),(231) 486-2491,,,http://www.oryana.coop,https://www.ncg.coop/,44.749708063,-85.653165402
49684,,,,260 East Tenth Street,,Traverse City,MI,Oryana Natural Foods Market,231 947-0191,,,Food for change,,44.749708063,-85.653165402
54901,,,,155 Jackson Street,,Oshkosh,WI,Oshkosh Food Co-op,(920) 312-7220,,,http://www.oshkoshfoodcoop.com,https://www.ncg.coop/,44.031564893,-88.54057708
94122,,,,3930 Judah Street,,SanFrancisco,CA,Other Avenues Food Store,415 661-7475,,,Food for change,,37.761043599,-122.472077912
53212,,,,100 E Capitol Dr.,,Milwaukee,WI,Outpost Natural Foods,414 961-2597,,,Food for change,,43.069173979,-87.908305269
53207,,,,2826 South Kinnickinnic Avenue,,Milwaukee,WI,Outpost Natural Foods Co-op (Bayview),(414) 755-3202,,,http://www.outpost.coop,https://www.ncg.coop/,42.982704276,-87.899611402
53212,,,,100 East Capitol Drive,,Milwaukee,WI,Outpost Natural Foods Co-op (Capitol Drive),(414) 961-2597,,,http://www.outpost.coop,https://www.ncg.coop/,43.069173979,-87.908305269
53092,,,,7590 West Mequon Road,,Mequon,WI,Outpost Natural Foods Co-op (Mequon),(262) 242-0426,,,http://www.outpost.coop,https://www.ncg.coop/,43.219030703,-87.949076304
53213,,,,7000 West State Street,,Wauwatosa,WI,Outpost Natural Foods Co-op (State),(414) 778-2012,,,http://www.outpost.coop,https://www.ncg.coop/,43.050479806,-88.000464321
72701,,,,380 North College Avenue,,Fayetteville,AR,Ozark Natural Foods,(479) 521-7558,,,http://www.onf.coop,https://www.ncg.coop/,36.049652435,-94.138261062
11215,,,,782 Union Street,,Brooklyn,NY,Park Slope Food Coop,(718) 783-2187,,,http://www.foodcoop.com,https://www.ncg.coop/,40.667291436,-73.983895655
98107,,,,1451 NW 46th Street,,Seattle,WA,PCC Community Markets (Ballard),(206) 547-1222,,,http://www.pccmarkets.com,https://www.ncg.coop/,47.669259414,-122.376430956
98004,,,,11615 NE 4th Street,,Bellevue,WA,PCC Community Markets (Bellevue),(206) 547-1222,,,http://www.pccmarkets.com,https://www.ncg.coop/,47.625766575,-122.202865403
98021,,,,22621 Bothell Everett Highway,,Bothell,WA,PCC Community Markets (Bothell),(425) 492-0122,,,http://www.pccmarkets.com,https://www.ncg.coop/,47.790687634,-122.214406131
98148,,,,"15840 First Avenue, S",,Burien,WA,PCC Community Markets (Burien),(206) 268-0270,,,http://www.pccmarkets.com,https://www.ncg.coop/,47.44116607,-122.328666667
98122,,,,2230 East Union Street,,Seattle,WA,PCC Community Markets (Central District),(206) 605-6053,,,http://www.pccmarkets.com,https://www.ncg.coop/,47.610829552,-122.303633109
98118,,,,3610 S. Edmunds Street,,Seattle,WA,PCC Community Markets (Columbia City),(206) 466-6182,,,http://www.pccmarkets.com,https://www.ncg.coop/,47.541586765,-122.276083221
98101,,,,1320 4th Avenue,,Seattle,WA,PCC Community Markets (Downtown),(206) 547-1222,,,http://www.pccmarkets.com,https://www.ncg.coop/,47.610767556,-122.336209158
98020,,,,9803 Edmonds Way,,Edmonds,WA,PCC Community Markets (Edmonds),(425) 275-9036,,,http://www.pccmarkets.com,https://www.ncg.coop/,47.803115553,-122.369890333
98103,,,,600 N 34th Street,,Seattle,WA,PCC Community Markets (Fremont),(206) 632-6811,,,http://www.pccmarkets.com,https://www.ncg.coop/,47.673651416,-122.343977024
98103,,,,7504 Aurora Ave. North,,Seattle,WA,PCC Community Markets (Greenlake Aurora),(206) 525-3586,,,http://www.pccmarkets.com,https://www.ncg.coop/,47.673651416,-122.343977024
98115,,,,450 NE 71st Street,,Seattle,WA,PCC Community Markets (Greenlake Village),(206) 729-5075,,,http://www.pccmarkets.com,https://www.ncg.coop/,47.684303447,-122.298747401
98027,,,,1810 12th Ave. NW,,Issaquah,WA,PCC Community Markets (Issaquah),(425) 369-1222,,,http://www.pccmarkets.com,https://www.ncg.coop/,47.475582664,-122.023617366
98033,,,,430 Kirkland Way,,Kirkland,WA,PCC Community Markets (Kirkland),(425) 828-4622,,,http://www.pccmarkets.com,https://www.ncg.coop/,47.677869194,-122.192358083
98052,,,,11435 Avondale Road NE,,Redmond,WA,PCC Community Markets (Redmond),(425) 285-1400,,,http://www.pccmarkets.com,https://www.ncg.coop/,47.686177697,-122.114587154
98115,,,,6514 40th Ave. NE,,Seattle,WA,PCC Community Markets (View Ridge),(206) 526-7661,,,http://www.pccmarkets.com,https://www.ncg.coop/,47.684303447,-122.298747401
98103,,,,600 North 34th Street,,Seattle,WA,PCC Natural Markets - Fremont,206 632-6811,,,Food for change,,47.673651416,-122.343977024
98103,,,,7504 Aurora Avenue,,Seattle,WA,PCC Natural Markets - Greenlake,206 525-3586,,,Food for change,,47.673651416,-122.343977024
98033,,,,10718 Northeast 68th Street,,Kirkland,WA,PCC Natural Markets - Kirkland,425 828-4622,,,Food for change,,47.677869194,-122.192358083
98118,,,,5041 Wilson Avenue,,Seattle,WA,PCC Natural Markets - Seward Park,206 723-2720,,,Food for change,,47.541586765,-122.276083221
98115,,,,6514 40th Avenue,,Seattle,WA,PCC Natural Markets - View Ridge,206 526-7661,,,Food for change,,47.684303447,-122.298747401
98116,,,,2749 California Avenue,,Seattle,WA,PCC Natural Markets - West Seattle,206 937-8481,,,Food for change,,47.573979678,-122.394159947
97202,,,,3029 Southeast 21st Avenue,,Portland,OR,People's Coop,503 674-2642,,,Food for change,,45.483422644,-122.639302394
48104,,,,216 North 4th Avenue,,Ann Arbor,MI,People's Food Co-op,734 994-9174,,,Food for change,,42.266234848,-83.72935033
48104,,,,216 North 4th Avenue,,Ann Arbor,MI,People's Food Co-op - Ann Arbor,(734) 769-0095,,,http://www.peoplesfood.coop,https://www.ncg.coop/,42.266234848,-83.72935033
97202,,,,3029 S.E. 21st Ave.,,Portland,OR,People's Food Co-op - Portland,(503) 674-2642,info@peoples.coop,,http://www.peoples.coop,https://www.ncg.coop/,45.483422644,-122.639302394
54601,,,,315 5th Ave. South,,La Crosse,WI,People's Food Co-op (La Crosse),(608) 784-5798,,,http://www.pfc.coop,https://www.ncg.coop/,43.797835381,-91.213222709
55902,,,,519 1st Ave SW,,Rochester,MN,People's Food Co-op (Rochester),(507) 289-9061,,,http://www.pfc.coop,https://www.ncg.coop/,44.001848994,-92.493905314
66502,,,,1620 Fort Riley Blvd,,Manhattan,KS,People's Grocery Cooperative,785 539-4811,,,Food for change,,39.193366443,-96.574682508
49007,,,,507 Harrison Street,,Kalamazoo,MI,PFC Natural Grocery & Deli,(269) 342-5686,,,http://www.pfckalamazoo.coop,https://www.ncg.coop/,42.296718886,-85.58684473
43612,,,,1447 W. Sylvania Ave.,,Toledo,OH,Phoenix Earth Food Co-op,(419) 476-3211,phoenixearthfoodmarketing@gmail.com,,http://www.phoenixearthfoodco-op.com,https://www.ncg.coop/,41.704355518,-83.555057387
53581,,,,196 West Court Street,,Richland Center,WI,Pine River Food Co-Op,608 647-7299,,,Food for change,,43.351184023,-90.400105533
95667,,,,535 Placerville Drive,,Placerville,CA,Placerville Food Co-op,(530) 621-3663,,,http://www.placervillefood.coop,https://www.ncg.coop/,38.744202669,-120.799665163
95667,,,,535 Placerville Dr.,,Placerville,CA,Placerville Natural Foods Co-op,530 621-3663,,,Food for change,,38.744202669,-120.799665163
13339,,,,46 River St.,,Fort Plain,NY,Plain Food Co-op,518 993-4194,,,Food for change,,42.938701025,-74.643502503
05667,,,,153 Main Street,,Plainfield,VT,Plainfield Cooperative Inc,802-454-8579,,,Food for change,,44.268287539,-72.418843979
56101,,,,910 4th Avenue,,Windom,MN,Plum Creek Food Co-op Inc,507 831-1882,,,Food for change,,43.85847941,-95.12479422
83204,,,,515 N Main St,,Pocatello,ID,Pocatello Co-op Natural Foods Market Inc,208 232-2181,,,Food for change,,42.847146378,-112.440608248
56267,,,,613 Atlantic Avenue,,Morris,MN,Pomme De Terre Foods,320 589-4332,,,Food for change,,45.587175934,-95.910311748
04101,,,,290 Congress Street,,Portland,ME,Portland Food Co-op,(207) 805-1599,,,http://www.portlandfood.coop,https://www.ncg.coop/,43.660778057,-70.257314135
13676,,,,24 Elm Street,,Potsdam,NY,Potsdam Food Co-op,(315) 265-4630,,,http://www.potsdamcoop.com,https://www.ncg.coop/,44.661196733,-74.956684344
67401,,,,305 East Walnut Street,,Salina,KS,Prairieland Food Co-op,785 827-5877,,,Food for change,,38.836211103,-97.610675534
67401,,,,305 E Walnut St.,,Salina,KS,Prairieland Market,785-827-5877,,,Food for change,,38.836211103,-97.610675534
46617,,,,123 N Hill St,,South Bend,IN,Purple Porch Co-op,574 287-6724,,,Food for change,,41.686034787,-86.236268542
05346,,,,8 Carol Brown Way,,Putney,VT,Putney Food Co-op,(802) 387-5866,ptnycoop@sover.net,,http://www.putneyfood.coop,https://www.ncg.coop/,43.011409817,-72.513431471
01364,,,,12 N Main St.,,Orange,MA,Quabbin Harvest Co-op,978 544-6784,,,Food for change,,42.606395946,-72.282379915
95971,,,,269 Main St,,Quincy,CA,Quincy Natural Foods,530 283-3528,,,Food for change,,39.939916267,-120.946437178
39216,,,,2807 Old Canton Road,,Jackson,MS,Rainbow Co-op,601 366-1602,,,Food for change,,32.33624426,-90.166031039
56013,,,,103 South Main Street,,Blue Earth,MN,Rainbow Food Co-op,507 526-3603,,,Food for change,,43.631612161,-94.106404062
94103,,,,1745 Folsom St,,San Francisco,CA,Rainbow Grocery Cooperative Inc,415 863-0620,,,Food for change,,37.774677982,-122.411092334
97439,,,,1379 Rhododendron Dr Florence,,Florence,OR,Real Food Co-op,541 997-3396,,,Food for change,,43.994735963,-124.111146081
04543,,,,323 Main Street,,Damariscotta,ME,Rising Tide Community Market,207 563-5556,,,Food for change,,44.032070084,-69.504383834
04543,,,,323 Main Street,,Damariscotta,ME,Rising Tide Co-op,(207) 563-5556,customercare@risingtide.coop,,http://www.risingtide.coop,https://www.ncg.coop/,44.032070084,-69.504383834
47713,,,,116 Washington Avenue,,Evansville,IN,River City Food Co-op,812 401-7301,,,Food for change,,37.964864837,-87.560016898
50701,,,,327 W 3rd St.,,Waterloo,IA,River Loop Public Market Co-op,319 287-9227,,,Food for change,,42.46744142,-92.364547034
55082,,,,221 North Main Street,,Stillwater,MN,River Market Community Co-op,(651) 439-0366,,,http://www.rivermarket.coop,https://www.ncg.coop/,45.025821152,-92.824041308
01027,,,,228 Northampton Street,,Easthampton,MA,River Valley Co-op (Easthampton),(413) 529-4990,,,http://www.rivervalleymarket.coop,https://www.ncg.coop/,42.302961856,-72.734012711
01060,,,,330 North King Street,,Northampton,MA,River Valley Co-op (Northhampton),(413) 584-2665,,,http://www.rivervalleymarket.coop,https://www.ncg.coop/,42.322468226,-72.633097104
01060,,,,330 N King St,,Northampton,MA,River Valley Market,413 585-5151,,,Food for change,,42.322468226,-72.633097104
53212,,,,733 East Clarke Street,,Milwaukee,WI,Riverwest Co-op,414 264-7933,,,Food for change,,43.069173979,-87.908305269
24015,,,,1319 Grandin Road S.W.,,Roanoke,VA,Roanoke Co+op (Grandin Road),(540) 343-5652,,,http://www.roanokenaturalfoods.coop,https://www.ncg.coop/,37.257578305,-79.979041313
24011,,,,One Market Square,,Roanoke,VA,Roanoke Co+op (Market Square),(540) 904-2733,,,http://www.roanokenaturalfoods.coop,https://www.ncg.coop/,37.271263144,-79.940680794
24015,,,,1319 Grandin Road,,Roanoke,VA,Roanoke Natural Foods Co-op,540 343-5652,,,Food for change,,37.257578305,-79.979041313
05701,,,,77 Wales Street,,Rutland,VT,Rutland Area Food Co-op,(802) 773-0737,,,http://www.rutlandcoop.com,https://www.ncg.coop/,43.62879192,-72.94302787
95816,,,,2820 R Street,,Sacramento,CA,Sacramento Natural Foods Co-op,(916) 455-2667,,,http://www.sac.coop,https://www.ncg.coop/,38.577749992,-121.465331527
30307,,,,467 Moreland Ave NE,,Atlanta,GA,Sevananda Natural Foods Market,(404) 681-2831,,,http://www.sevananda.coop,https://www.ncg.coop/,33.763478057,-84.347963268
55406,,,,2823 E. Franklin Avenue,,Minneapolis,MN,Seward Community Co-op (Franklin),(612) 338-2465,,,http://www.seward.coop,https://www.ncg.coop/,44.941905326,-93.222135689
55409,,,,317 East 38th Street,,Minneapolis,MN,Seward Community Co-op (Friendship),(612) 230-5595,,,http://www.seward.coop,https://www.ncg.coop/,44.931166203,-93.280607367
55406,,,,2823 East Franklin Avenue,,Minneapolis,MN,Seward Co-op Grocery & Deli,612 338-2465,,,Food for change,,44.941905326,-93.222135689
85635,,,,96 S. Carmichael,,Sierra Vista,AZ,Sierra Vista Food Co-op,520 335-6676,,,Food for change,,31.547376595,-110.273581912
88061,,,,520 North Bullard Street,,Silver City,NM,Silver City Food Co-op,(575) 388-2343,,,http://www.silvercityfoodcoop.coop,https://www.ncg.coop/,32.781308044,-108.257791806
57104,,,,410 West 18th Street,,Sioux Falls,SD,Sioux Falls Food Co+op,(605) 339-9506,,,https://siouxfalls.coop/,https://www.ncg.coop/,43.559425668,-96.72796983
99835,,,,P.O. Box 6407,,Sittka,AK,Sitka Food Co-op,907-752-2335,,,Food for change,,57.062974004,-135.339565907
98273,,,,202 South First Street,,Mount Vernon,WA,Skagit Valley Food Co-op,(360) 336-9777,info@skagitfoodcoop.com,,http://www.skagitfoodcoop.com,https://www.ncg.coop/,48.427297767,-122.329109366
93401,,,,2494 Victoria Avenue,,San Luis Obispo,CA,SLO Food Co-op,(805) 544-7928,,,http://slonaturalfoods.coop/,https://www.ncg.coop/,35.257192227,-120.653341914
98201,,,,2804 Grand Avenue,,Everett,WA,Sno-Isle Food Co-op,(425) 259-3798,info@snoislefoods.coop,,http://www.snoislefoods.coop,https://www.ncg.coop/,47.986635437,-122.204321463
98201,,,,2804 Grand Avenue,,Everett,WA,Sno-Isle Natural Foods Co-op,425 259-3798,,,Food for change,,47.986635437,-122.204321463
19148,,,,2031 South Juniper Street,,Philadelphia,PA,South Philly Food Co-op,(215) 920-1100,,,http://www.southphillyfood.coop,https://www.ncg.coop/,39.919157966,-75.157547605
05068,,,,105 Chelsea Street,,South Royalton,VT,South Royalton Market,802 763-2400,,,Food for change,,43.798830242,-72.511289313
60466,,,,208 Forest Boulevard,,Park Forest,IL,South Suburban Food Co-op Inc,708 747-2256,,,Food for change,,41.473723321,-87.684960139
55033,,,,1250 South Frontage Road,,Hastings,MN,Spiral Food Co-op,(651) 437-2667,,,http://www.spiral.coop,https://www.ncg.coop/,44.725584646,-92.86348554
55033,,,,1250 South Frontage Road,,Hastings,MN,Spiral Natural Foods,651 437-2667,,,Food for change,,44.725584646,-92.86348554
05156,,,,6 Main Street,,Springfield,VT,Springfield Food Co-op,(802) 885-3363,,,http://www.springfieldfood.coop,https://www.ncg.coop/,43.303582352,-72.489595431
05819,,,,490 Portland Street,,St.Johnsbury,VT,St Johnsbury Food Co-op,802 748-9498,,,Food for change,,44.421291544,-71.994311949
56082,,,,228 West Mulberry Street,,St.Peter,MN,St. Peter Food Co-op & Deli,507 934-4880,,,Food for change,,44.331482811,-93.964875516
56082,,,,228 W. Mulberry,,St. Peter,MN,St. Peter Food Co-op and Deli,(507) 934-4880,,,http://www.stpeterfood.coop,https://www.ncg.coop/,44.331482811,-93.964875516
54481,,,,633 2nd Street,,Stevens Point,WI,Stevens Point Area Co-op,715 341-1555,,,Food for change,,44.517650469,-89.575582967
05764,,,,216 Main Street,,Poultney,VT,Stone Valley Community Market,802 287-4550,,,Food for change,,43.518484229,-73.229283461
60302,,,,812 Madison Street,,Oak Park,IL,Sugar Beet Food Co-op,(708) 948-7656,,,http://www.sugarbeet.coop,https://www.ncg.coop/,41.898306738,-87.781437262
32920,,,,6615 North Atlantic Avenue,,Cape Canaveral,FL,Sunseed Food Co-op Inc,321 784-0930,,,Food for change,,28.391443474,-80.603902448
98326,,,,16795 Hwy 112,,Clallam Bay,WA,Sunsets West Coop,360.963.2189,,,Food for change,,48.220278733,-124.392869733
07860,,,,30 Moran Street,,Newton,NJ,Sussex County Food Co-op Inc,973 579-1882,,,Food for change,,41.068529262,-74.796479866
19081,,,,341 Dartmouth Avenue,,Swarthmore,PA,Swarthmore Co-op,610 543-9805,,,Food for change,,39.898757466,-75.346714501
13210,,,,618 Kensington Road,,Syracuse,NY,Syracuse Cooperative Market (Kensington),(315) 472-1385,,,http://www.syracuse.coop,https://www.ncg.coop/,43.035187943,-76.125706677
13202,,,,484 South Salina Street,,Syracuse,NY,Syracuse Cooperative Market (Salina),(315) 552-0029,,,http://www.syracuse.coop,https://www.ncg.coop/,43.042997906,-76.149880255
13210,,,,618 Kensington Road,,Syracuse,NY,Syracuse Real Food Co-op,315 472-1385,,,Food for change,,43.035187943,-76.125706677
98406,,,,3002 6th Ave.,,Tacoma,WA,Tacoma Food Co-op,253 627-3344,,,Food for change,,47.25261878,-122.516140897
20912,,,,201 Ethan Allen Avenue,,Takoma Park,MD,Takoma Park-Silver Spring Food,301 891-2667,,,Food for change,,38.978082763,-76.995841071
21704,,,,5728 Buckeystown Pike #1-B,,Frederick,MD,The Common Market,301 663-3416,,,Food for change,,39.368507404,-77.386652945
21701,,,,927 West Seventh Street,,Frederick,MD,The Common Market (7th Street),(301) 663-3416,cm@commonmarket.coop,,http://www.commonmarket.coop,https://www.ncg.coop/,39.437693572,-77.376888084
21704,,,,"5728 Buckeystown Pike, Unit B-1",,Frederick,MD,The Common Market (RT 85),(301) 663-3416,cm@commonmarket.coop,,http://www.commonmarket.coop,https://www.ncg.coop/,39.368507404,-77.386652945
66044,,,,901 Iowa Street,,Lawrence,KS,The Community Mercantile,785 843-8544,,,Food for change,,38.966925032,-95.23919759
04730,,,,53 Main St.,,Houlton,ME,The County Co-op and Farm Store,207 592-1476,,,Food for change,,46.12444712,-67.859096229
98368,,,,414 Kearney St.,,Port Townsend,WA,The Food Co-op - Port Townsend,(360) 385-2883,,,http://www.foodcoop.coop,https://www.ncg.coop/,48.100064095,-122.801536516
51360,,,,1610 Hill Avenue,,Spirit Lake,IA,The Market Community Co-op,712 336-2520,,,Food for change,,43.425842588,-95.125949643
66101,,,,501 Minnesota Avenue,,Kansas City,KS,The Merc Co+op (KCK),(913) 320-0404,ownerservices@themerc.coop,,http://www.themerc.coop,https://www.ncg.coop/,39.112646376,-94.627867157
66044,,,,901 Iowa Street,,Lawrence,KS,The Merc Co+op (Lawrence),(785) 843-8544,ownerservices@themerc.coop,,https://www.themerc.coop,https://www.ncg.coop/,38.966925032,-95.23919759
98250,,,,775 Mullis St.,,Friday Harbor,WA,The San Juan Island Food Co-op,360-370-5170,,,Food for change,,48.533017425,-123.023287907
37917,,,,1100 North Central Street,,Knoxville,TN,Three Rivers Market,(865) 525-2069,customerservice@threeriversmarket.coop,,http://www.threeriversmarket.coop,https://www.ncg.coop/,35.994593264,-83.918189337
28403,,,,5329 Oleander Drive,,Wilmington,NC,Tidal Creek Cooperative,910 799-2667,,,Food for change,,34.22173936,-77.883745854
28403,,,,5329 Oleander Drive,,Wilmington,NC,Tidal Creek Cooperative Food Market,(910) 799-2667,mail@tidalcreek.coop,,http://www.tidalcreek.coop,https://www.ncg.coop/,34.22173936,-77.883745854
43612,,,,1447 West Sylvania Avenue,,Toledo,OH,"Toledo Natural Food Co-op ""Phoenix""",419 476-3211,,,Food for change,,41.704355518,-83.555057387
66606,,,,503 Southwest Washburn Avenue,,Topeka,KS,Topeka Natural Food Co-op,785 235-2309,,,Food for change,,39.058236367,-95.708150469
20912,,,,201 Ethan Allen Avenue,,Takoma Park,MD,TPSS Co-op,(301) 891-2667,,,http://www.tpss.coop,https://www.ncg.coop/,38.978082763,-76.995841071
53572,,,,517 Springdale Street,,Mount Horeb,WI,Trillium Natural Foods,608 437-5288,,,Food for change,,42.961925818,-89.747690213
11050,,,,382 Main Street,,Port Washington,NY,Twin Pines Food Co-op,516 883-9777,,,Food for change,,40.835264621,-73.695480552
95482,,,,721 South State Street,,Ukiah,CA,Ukiah Natural Foods,707 462-4778,,,Food for change,,39.15484182,-123.207028758
95482,,,,721 South State St.,,Ukiah,CA,Ukiah Natural Foods Co-op,(707) 462-4778,,,http://www.ukiahcoop.com/,https://www.ncg.coop/,39.15484182,-123.207028758
05001,,,,193 N. Main St.,,White River Junction,VT,Upper Valley Food Co-op,(802) 295-5804,,,http://www.uppervalleyfood.coop,https://www.ncg.coop/,43.665144835,-72.366536217
29682,,,,404 State Road S-39-125,,SixMile,,Upstate Food Co-op. SC,864 868-3105,,,Food for change,,34.827769929,-82.834353591
02907,,,,93 Cranston Street,,Providence,RI,Urban Greens Co-op Market,(401) 267-8432,info@urbangreens.com,,http://www.urbangreens.com,https://www.ncg.coop/,41.803193252,-71.424135708
81101,,,,3211 Main St # G,,Alamosa,CO,Valley Food Co-op,719 589-5727,,,Food for change,,37.475158888,-105.873615894
55337,,,,13750 County Road 11,,Burnsville,MN,Valley Natural Foods,(952) 891-1212,,,http://www.valleynaturalfoods.com,https://www.ncg.coop/,44.767997624,-93.273918921
98660,,,,1002 Main St.,,Vancouver,WA,Vancouver Grocery Food Co-op,360 694-8094,,,Food for change,,45.64207742,-122.67951084
12816,,,,1 West Main Street,,Cambridge,NY,Village Store Co-op,518 677-5731,,,Food for change,,43.046594471,-73.383611576
54665,,,,609 N. Main St.,,Viroqua,WI,Viroqua Food Co+op,(608) 637-7511,outreach@viroquafood.coop,,http://www.viroquafood.coop,https://www.ncg.coop/,43.547678306,-90.9016332
54665,,,,609 North Main Street,,Viroqua,WI,Viroqua Food Co-op,608 637-7511,,,Food for change,,43.547678306,-90.9016332
27510,,,,101 East Weaver Street,,Carrboro,NC,Weaver Street Market,919 929-0010,,,Food for change,,35.911420785,-79.08098585
27510,,,,101 East Weaver Street,,Carrboro,NC,Weaver Street Market (Carrboro),(919) 929-0010,,,http://www.weaverstreetmarket.coop,https://www.ncg.coop/,35.911420785,-79.08098585
27516,,,,716 Market Street,,Chapel Hill,NC,Weaver Street Market (Chapel Hill),(919) 929-2009,,,http://www.weaverstreetmarket.coop,https://www.ncg.coop/,35.906340095,-79.098331348
27278,,,,228 South Churton Street,,Hillsborough,NC,Weaver Street Market (Hillsborough),(919) 245-5050,,,http://www.weaverstreetmarket.coop,https://www.ncg.coop/,36.075648652,-79.0872731
27603,,,,404 West Hargett Street,,Raleigh,NC,Weaver Street Market (Raleigh),(919) 429-7800,,,http://www.weaverstreetmarket.coop,https://www.ncg.coop/,35.712835787,-78.661067498
19118,,,,8424 Germantown Avenue,,Philadelphia,PA,Weavers Way Co-op,215 866-9150,,,Food for change,,40.07087989,-75.204804785
19002,,,,217 East Butler Avenue,,Ambler,PA,Weavers Way Co-op (Ambler),(215) 302-5550,contact@weaversway.coop,,http://www.weaversway.coop,https://www.ncg.coop/,40.173695993,-75.212422139
19118,,,,8424 Germantown Avenue,,Philadelphia,PA,Weavers Way Co-op (Chestnut Hill),(215) 843-2350,contact@weaversway.coop,,http://www.weaversway.coop/,https://www.ncg.coop/,40.07087989,-75.204804785
19119,,,,559 Carpenter Lane,,Philadelphia,PA,Weavers Way Co-op (Mt. Airy),(215) 843-2350,contact@weaversway.coop,,http://www.weaversway.coop,https://www.ncg.coop/,40.053385225,-75.18898244
55405,,,,2105 Lyndale Avenue,,Minneapolis,MN,Wedge Community Co-op,612 871-3993,,,Food for change,,44.970760795,-93.30539766
55405,,,,2105 Lyndale Avenue S,,Minneapolis,MN,Wedge Co-op (Lyndale),(612) 871-3993,,,http://www.wedge.coop,https://www.ncg.coop/,44.970760795,-93.30539766
50010,,,,413 Northwestern Ave.,,Ames,IA,Wheatsfield Cooperative,(515) 232-4094,,,http://www.wheatsfield.coop,https://www.ncg.coop/,42.028577445,-93.61556153
78705,,,,3101 Guadalupe St.,,Austin,TX,Wheatsville Co-op (Guadalupe),(512) 478-2667,,,http://www.wheatsville.coop,https://www.ncg.coop/,30.29230365,-97.73903265
78704,,,,4001 South Lamar Boulevard,,Austin,TX,Wheatsville Co-op (South Lamar),(512) 814-2888,,,http://www.wheatsville.coop,https://www.ncg.coop/,30.244401636,-97.761690133
78705,,,,3101 Guadalupe Street,,Austin,TX,Wheatsville food Co-op,512 478-2667,,,Food for change,,30.29230365,-97.73903265
54022,,,,126 South Main Street,,RiverFalls,WI,Whole Earth Co-op,715 425-7971,,,Food for change,,44.854732484,-92.614656555
54022,,,,126 South Main Street,,River Falls,WI,Whole Earth Market Co-op,(715) 425-7971,,,http://www.wemarket.coop,https://www.ncg.coop/,44.854732484,-92.614656555
55805,,,,610 East 4th Street,,Duluth,MN,Whole Foods Co-op,218 728-0884,,,Food for change,,46.798447678,-92.097411388
55807,,,,4426 Grand Avenue,,Duluth,MN,Whole Foods Co-op - Duluth (Denfeld),(218) 728-0884,info@wholefoods.coop,,http://www.wholefoods.coop,https://www.ncg.coop/,46.738419954,-92.170841044
55805,,,,610 E. 4th Street,,Duluth,MN,Whole Foods Co-op - Duluth (Hillside),(218) 728-0884,info@wholefoods.coop,,http://www.wholefoods.coop,https://www.ncg.coop/,46.798447678,-92.097411388
16508,,,,1341 West 26th St.,,Erie,PA,Whole Foods Co-op Association,814 456-0282,,,Food for change,,42.09973689,-80.088016211
01267,,,,320 Main Street,,Williamstown,MA,Wild Oats Cooperative Food Market,413 458-8060,,,Food for change,,42.710013162,-73.202910715
01267,,,,320 Main Street,,Williamstown,MA,Wild Oats Market,(413) 458-8060,,,http://www.wildoats.coop,https://www.ncg.coop/,42.710013162,-73.202910715
06226,,,,91 Valley Street,,Willimantic,CT,Willimantic Food Co-op,(860) 456-3611,willifoodcoop@snet.net,,http://www.willimanticfood.coop,https://www.ncg.coop/,41.713803936,-72.212409412
53703,,,,221 Williamson St.,,Madison,WI,Willy Street Co-op - East,608 251 6776,,,Food for change,,43.077340719,-89.378527332
53703,,,,1221 Williamson Street,,Madison,WI,Willy Street Co-op (East),(608) 251-6776,info@willystreet.coop,,http://www.willystreet.coop,https://www.ncg.coop/,43.077340719,-89.378527332
53704,,,,2817 North Sherman Avenue,,Madison,WI,Willy Street Co-op (North),(608) 471-4422,info@willystreet.coop,,http://www.willystreet.coop,https://www.ncg.coop/,43.11864893,-89.350211729
53562,,,,6825 University Avenue,,Middleton,WI,Willy Street Co-op (West),(608) 284-7800,info@willlystreet.coop,,http://www.willystreet.coop,https://www.ncg.coop/,43.103829049,-89.505975554
53562,,,,6825 University Avenue,,Middleton,WI,Willy Street Co-op—West,608 284-7800,,,Food for change,,43.103829049,-89.505975554
54896,,,,5159 North South Main Street,,Winter,WI,Winter Co-op Store,715 266-2611,,,Food for change,,45.860911205,-90.940195888
56007,,,,1442 West Main Street,,Albert Lea,MN,Wintergreen Natural Foods,507 373-0386,,,Food for change,,43.651481948,-93.361155895
53589,,,,229 East Main Street,,Stoughton,WI,Yahara River Grocery Cooperative,608 877-0947,,,Food for change,,42.926431003,-89.224927009
98597,,,,308 East Yelm Avenue,,Yelm,WA,Yelm Food Co-op,360 400-2210,,,Food for change,,46.862403252,-122.516446593
48198,,,,312 N. River St.,,Ypsilanti,MI,Ypsilanti Food Co-op,(734) 483-1520,,,http://www.ypsifoodcoop.org,https://www.ncg.coop/,42.250880085,-83.593587769
28655,,,,617 Carbon City Road,,Morganton,NC,Opportunity Threas,,,,https://www.opportunitythreads.com/,,35.730280611,-81.701860014
